id,shortName,shortName_override,isLoop,longName_en,longName_en_override,longName_ka,longName_ka_override,longName_ru_override,dest0_en,dest0_en_override,dest0_ka,dest0_ka_override,dest0_ru_override,dest1_en,dest1_en_override,dest1_ka,dest1_ka_override,dest1_ru_override,invertDirection
1:Gondola_Gondola_1,1,,,Rike - Narikala,,რიყე - ნარიყალა,,,,,,,,,,,,,
1:R826,1,,,Mshenebelta-Megobroba-Shartava-Leonidze-Todria-Pirosmani,,მშენებელთა-მეგობრობა-შარტავა-ლეონიძე-თოდრია-ფიროსმანი,,,,,,,,,,,,,
1:Gondola_Gondola_2,2,,,Vake - Turtle Lake,,ჭავჭავაძის გამზ. - კუს ტბა,,,,,,,,,,,,,
1:R846,2,,,Megobroba-Todria-Aghmashenebeli-Shartava-Gagarini-Balanchivadze,,მეგობრობა-თოდრია-აღმაშენებელი-შარტავა-გაგარინი-ბალანჩივაძე,,,,,,,,,,,,,
1:Gondola_Gondola_3,3,,,University - Bagebi,,უნივერსიტეტი - ბაგები,,,,,,,,,,,,,
1:R1572,3,,,Shartava-Megobroba-Metallurgical Plant-Rustaveli,,შარტავა-მეგობრობა-მეტ. ქარხანა-რუსთაველი,,,,,,,,,,,,,
1:R854,4,,,Megobroba-Todria-Shartava-Aghmashenebeli-Rustaveli-Gareji,,მეგობრობა-თოდრია-შარტავა-აღმაშენებელი-რუსთაველი-გარეჯი,,,,,,,,,,,,,
1:R835,5,,,Tbilisi Str.-20 Microdistrict-Aghmashenebeli-11 Microdistrict-Leonidze,,თბილისის ქ.-20 მკ/რ-აღმაშენებელი -11 მკ/რ-ლეონიძე,,,,"19th M/D, Aghmashenebeli",,,,Metallurgical Plant,,,,,true
1:R1681,6,,,Embankment-11 Microdistrict-Agmashenebeli-Shartava-Leonidze-12 Microdistrict-Pirosmani-Gagarini,,სანაპირო-11 მკ/რ-აღმაშენებელი-შარტავა-ლეონიძე-12 მკრ.-ფიროსმანი-გაგარინი,,,,,,,,,,,,,
1:R769,7,,,Rcheulishvili Str.-Batumi Str.-Megobroba-Meskhishvili-Leonidze,,რჩეულიშვილი-ბათუმის ქ.-მეგობრობა-მესხიშვილი-ლეონიძე,,,,,,,,,,,,,
1:R2367,8,,,Auto Fair - Kutaisi Square,,ავტობაზრობა-ქუთაისის მოედანი,,,,,,,,,,,,,
1:R12237,10,,,Rustavi Cemetery,,რუსთავის სასაფლაო,,,,,,,,,,,,,
1:R24956,10ა,,,Rustavi Cemetery,,რუსთავის სასაფლაო,,,,,,,,,,,,,
1:R2401,20,,,Rustavi - M/S Isani,,რუსთავი - თბილისი(ისანი),,,,M/S Isani,,,,M/S Isani,,,,,
1:R11746,21,,,Rustavi - Tbilisi Sports Palace,,რუსთავი-თბილისი(სპორტის სასახლე),,,,,,,,,,,,,
1:R15903,22,,,Rustavi - M/S Didube,,რუსთავი-თბილისი(დიდუბე),,,,,,,,,,,,,
1:R15907,23,,,Rustavi - TSU Maghlivi Building,,რუსთავი-თბილისი(უნივერსიტეტის მაღლივი კორპუსი),,,,Rustavi,,,,TSU Maghlivi Building,,,,,
1:R16671,24,,,Rustavi - M/S Station Square,,რუსთავი-თბილისი(რკ.სადგური),,,,M/S Station Square,,,,Rustavi,,,,,true
1:R216088,101,,,Krtsanisi Vill. - Varketili-3 IV M/D,,სოფ. კრწანისი - ვარკეთილი-3 IV მ/რ,,,Varketili IV M/D,,ვარკეთილის IV მ/რ,,,Agrarian Univ. Dorm.,,აგრარულის საერთო საცხოვრებელი,,,
1:R216082,102,,,#6 Penitentiary Institution - Baratashvili St,,№6-ე სასჯელ-აღსრულების დაწესებულება - ბარათაშვილის ქ.,,,Baratashvili St,,ბარათაშვილის ქ.,,,Prison Establishment #6,,№6-ე სასჯელ-აღსრულების დაწესებულება,,,
1:R216109,107,,,Tsodoreti Vill. - M/S Delisi,,სოფ. წოდორეთი - მ/ს დელისი,,,M/S Delisi,,მ/ს დელისი,,,Tsodoreti,,წოდორეთი,,,
1:R239274,174,,true,M/S Samgori (Upper Exit)-M/S Varketili,,მ/ს სამგორი(ზედა)-მ/ს ვარკეთილი,,,M/S Samgori-Varketili,,მ/ს სამგორი-ვარკეთილი,,,"M/S ""Samgori""",,"მ/ს ""სამგორი""",,,
1:R113218,292,,,M/S Akhmeteli Theatre - Tbilisi Mall,,მ/ს ახმეტელის თეატრი - თბილისი მოლი,,,Tbilisi Mall,,თბილისი მოლი,,,M/S Akhmeteli Theatre,,მ/ს ახმეტელის თეატრი,,,
1:R101490,293,,true,M/S Sarajishvili - Didi Dighomi I-II M/D,,მ/ს სარაჯიშვილი - დიდი დიღმის I-II მ/რ.,,,Iberi St - M/S Sarajishvili,,იბერის ქ.-მ/ს სარაჯიშვილი,,,M/S Sarajishvili,,"მ/ს ""სარაჯიშვილი""",,,
1:R101498,294,,true,Mukhiani M/D-3 - M/S Akhmeteli Theatre,,მუხიანის III მ/რ - მ/ს ახმეტელის თეატრი,,,M/S Akhmeteli - Mukhiani M/D-3,,მ/ს ახმეტელი-მუხიანის III მ/რ,,,Nodar Dumbadze Ave #10,,ნოდარ დუმბაძის გამზირი კორპუსი #10,,,
1:R101593,295,,true,Afrika Stlmt. - M/S Varketili,,აფრიკის დას. - მ/ს ვარკეთილი,,,M/S Varketili - Chichinadze Str,,მ/ს ვარკეთილი-ჭიჭინაძის ქ.,,,Public School for Impaired Vision people #201,,#201-ე სუსტმხედველთა საჯარო სკოლა,,,
1:R101654,296,,,Saint Barbare Ubani - M/S Isani,,წმინდა ბარბარეს უბანი - მ/ს ისანი,,,Saint Barbare District,,წმინდა ბარბარეს უბანი,,,"""Isani"" M/S",,"მ/ს ""ისანი""",,,
1:R101831,297,,true,Gldani Lake Setl. - M/S Akhmeteli Theatre,,გლდანის ტბის დას. - მ/ს ახმეტელის თეატრი,,,M/S Akhmeteli Theatre - Khochi Lake Str,,მ/ს ახმეტელი-ხოჭის ტბის ქ.,,,Naserali Kedi Street,,ნასერალის ქედის ქუჩა,,,
1:R99201,298,,,Square Station 2 - Saburtalo Blocks,,სადგურის მოედანი 2 - საბურთალოს კვარტალები,,,M/S State University,,მ/ს სახელმწიფო უნივერსიტეტი,,,Station Square 2,,სადგურის მოედანი  2,,,
1:R99222,299,,true,Ljubljana St - M/S Didube  (Lower),,ლუბლიანას ქ. - მ/ს დიდუბე (ქვედა),,,M/S Didube - Ljubljana St,,მ/ს დიდუბე-ლუბლიანას ქ.,,,Hospitals' Complex,,საავადმყოფოების კომპლექსი,,,
1:R99189,300,,true,Saarbrücken Sq. - Marijani St,,ზაარბრიუკენის მ-ნი - მარიჯანის ქ.,,,Marijani St - Saarbrücken Sq.,,მარიჯანის ქ.-ზაარბრიუკენის მ-ნი,,,Saarbrücken Square,,ზაარბრიუკენის მოედანი,,,
1:R29981,301,,,Saint Barbare Ubani - Politkovskaya St,,წმინდა ბარბარეს უბანი - პოლიტკოვსკაიას ქ.,,,Saint Barbare District,,წმინდა ბარბარეს უბანი,,,Politkovskaya St,,პოლიტკოვსკაიას ქ.,,,
1:R98273,302,,,Didi Digomi M/D-4 - State University H/B,,დიდი დიღმის IV მ/რ  - სახ. უნივერსიტეტის მ/კ,,,Didi Dighomi IV M/D,,დიდი დიღმის IV მ/რ,,,State University H/B,,სახ.უნივერსიტეტის მ/კ,,,
1:R99230,303,,true,Varketili-3 IV M/D - M/S Varketili,,ვარკეთილი-3 IV მ/რ - მ/ს ვარკეთილი,,,M/S Varketili -Varketili M/D-4,,მ/ს ვარკეთილი - IV მ/რ,,,Victor Kupradze Street,,ვიქტორ კუპრაძის ქუჩა,,,
1:R97674,304,,,Gldani VII-VIII M/D - Tbilisi State University H/B,,გლდანის VII - VIII მ/რ - სახ. უნივერსიტეტის მ/კ,,,State University H/B,,სახ.უნივერსიტეტის მ/კ,,,Gldani VII-VIII M/D,,გლდანის VII-VIII მ/რ,,,
1:R97485,305,,,Kiziki St - State University H/B,,ქიზიყის ქ. -  სახ. უნივერსიტეტის მ/კ,,,Kiziki St,,ქიზიყის ქ.,,,State University H/B,,სახ.უნივერსიტეტის მ/კ,,,
1:R98190,306,,,Didi Digomi M/D-4 - Saint Barbare Ubani,Didi Digomi IV M/D - Saint Barbare Ubani,დიდი დიღმის IV მ/რ - წმინდა ბარბარეს უბანი,,,Saint Barbare District,,წმინდა ბარბარეს უბანი,,,Didi Dighomi IV M/D,,დიდი დიღმის IV მ/რ,,,true
1:R98113,307,,,Station Square - Vake-Bagebi,,სადგურის მოედანი - ვაკე-ბაგები,,,Station Square 1,,სადგურის მოედანი 1,,,Vake-Bagebi,,ვაკე-ბაგები,,,
1:R97694,308,,,Gldani VII-VIII M/D - Baratashvili St,,გლდანის VII-VIII მ/კ - ბარათაშვილის ქ.,,,Gldani VII-VIII M/D,,გლდანის VII-VIII მ/რ,,,Baratashvili St,,ბარათაშვილის ქ.,,,
1:R97714,309,,,Varketili IV M/D - Nugzar Endeladze Square (Vake),,ვარკეთილის IV მ/რ - ნუგრაზ ენდელაძის მ-ნი (ვაკე),,,Nugzar Endeladze Square,,ნუგზარ ენდელაძის მ-ნი,,,Varketili IV M/D,,ვარკეთილის IV მ/რ,,,
1:R98476,310,,,Varketili M/D-4 - State University H/B,,ვარკეთილის IV მ/რ - სახ. უნივერსიტეტის მ/კ,,,Varketili IV M/D,,ვარკეთილის IV მ/რ,,,State University H/B,,სახ.უნივერსიტეტის მ/კ,,,
1:R97614,311,,,Didi Dighomi IV M/D - Tbilisi State University H/B,,დიდი დიღმის IV მ/რ - სახ. უნივერსიტეტის მ/კ,,,State University H/B,,სახ.უნივერსიტეტის მ/კ,,,Didi Dighomi IV M/D,,დიდი დიღმის IV მ/რ,,,
1:R97513,312,,,Didi Lilo - M/S Isani,,დიდი ლილო  - მ/ს ისანი,,,Big Lilo,,დიდი ლილო,,,"""Isani"" M/S",,"მ/ს ""ისანი""",,,
1:R97489,313,,,M/S Akhmeteli Theatre - Paichadze St (Dighomi),,მ/ს ახმეტელის თეატრი - პაიჭაძის ქ. (დიღომი),,,Paichadze St (Dighomi),,პაიჭაძის ქ. (დიღომი),,,M/S Akhmeteli Theatre,,მ/ს ახმეტელის თეატრი,,,
1:R97517,314,,,Didi Dighomi IV M/D - Baratashvili St,,დიდი დიღმის IV მ/რ - ბარათაშვილის ქ.,,,Didi Dighomi IV M/D,,დიდი დიღმის IV მ/რ,,,Baratashvili St,,ბარათაშვილის ქ.,,,
1:R97521,315,,,Didi Dighomi IV M/D - Station Square,,დიდი დიღმის IV მ/რ - სადგურის მოედანი,,,Station Square 1,,სადგურის მოედანი 1,,,Didi Dighomi IV M/D,,დიდი დიღმის IV მ/რ,,,
1:R98445,316,,,Baratashvili St - Kiketi,,ბარათაშვილის ქ. - კიკეთი,,,Kiketi,,კიკეთი,,,Baratashvili St,,ბარათაშვილის ქ.,,,
1:R97525,317,,true,Mukhiani M/D-4b - Pirosmani Square,,მუხიანის IV ბ მ/რ  - ფიროსმანის მოედანი,,,Pirosmani Square - Mukhiani,,ფიროსმანის მ/ნი - მუხიანი,,,"Mukhiani M/D-4b, #42",,"მუხიანის IVბ მ/რ, კორპუსი #42",,,
1:R97529,318,,,Small Lilo - M/S Isani,,პატარა ლილო - მ/ს ისანი,,,Patara Lilo,,პატარა ლილო,,,"""Isani"" M/S",,"მ/ს ""ისანი""",,,
1:R80273,319,,,M/S Varketili - Station Square 1,,მ/ს ვარკეთილი - სადგურის მოედანი1,,,M/S Varketili,,მ/ს ვარკეთილი,,,Station Square 1,,სადგურის მოედანი 1,,,
1:R97533,320,,,Dighomi Block - Baratashvili St,,დიღმის მასივი - ბარათაშვილის ქ.,,,Dighomi Array,,დიღმის მასივი,,,Baratashvili St,,ბარათაშვილის ქ.,,,
1:R55124,321,,,Didi Dighomi IV M/D - M/S Sarajishvili,,დიდი დიღმის IV მ/რ - მ/ს სარაჯიშვილი,,,Sarajishvili M/S,,მ/ს სარაჯიშვილი,,,Didi Dighomi IV M/D,,დიდი დიღმის IV მ/რ,,,
1:R97618,322,,,Village Nasaguri - M/S Isani,,სოფელი ნასაგური  -  მ/ს ისანი,,,Nasaguri,,სოფ. ნასაგური,,,"""Isani"" M/S",,"მ/ს ""ისანი""",,,
1:R97622,323,,,Gldani VII-VIII  M/D - Baratashvili St,,გლდანის VII-VIII მ/რ - ბარათაშვილის ქ.,,,Gldani VII-VIII M/D,,გლდანის VII-VIII მ/რ,,,Baratashvili St,,ბარათაშვილის ქ.,,,
1:R97638,324,,,Tsavkisi - Baratashvili St,,წავკისი - ბარათაშვილის ქ.,,,Baratashvili St,,ბარათაშვილის ქ.,,,Tsavkisi,,წავკისი,,,
1:R97626,325,,,Vazisubani M/D-2 - Baratashvili St,,ვაზისუბნის II მ/რ - ბარათაშვილის ქ.,,,Vazisubani II M/D,,ვაზისუბნის II მ/რ,,,Baratashvili St,,ბარათაშვილის ქ.,,,
1:R97493,326,,,Baratashvili St - Politkovskaya St,,ბარათაშვილის ქ. - პოლიტკოვსკაიას ქ.,,,Politkovskaya St,,პოლიტკოვსკაიას ქ.,,,Baratashvili St,,ბარათაშვილის ქ.,,,true
1:R97630,327,,,Vashlijvari Settlement - Station Square,,ვაშლიჯვრის დასახლება - სადგურის მოედანი,,,Station Square 2,,სადგურის მოედანი 2,,,Vashlijvari Sattlement,,ვაშლიჯვრის დასახლება,,,
1:R97634,328,,,Mnatobi St - Marjanishvili Square,,მნათობის ქ. - მარჯანიშვილის მ-ნი,,,Marjanishvili Square,,მარჯანიშვილი მ-ნი,,,Mnatobi St.,,მნათობის ქ.,,,
1:R97678,329,,true,Sadguris Moedani - Sop. Tkhinvala,Station Square – Village Tkhinvala,სადგურის მოედანი - სოფ. თხინვალა,სადგურის მოედანი – სოფ. თხინვალა,,Tkhinvala-sadguris M-ni 2,Station Square,თხინვალა-სადგურის მ-ნი 2,თხინვალა-სადგურის მ-ნი 2,,Station Square,Village Tkhinvala,სადგურის მოედანი,,,
1:R80661,330,,,Tsatsa Amirejibi St - M/S Isani,,ცაცა ამირეჯიბის  ქ. - მ/ს ისანი,,,"""Isani"" M/S",,"მ/ს ""ისანი""",,,Amirejibi St,,ამირეჯიბის ქ.,,,
1:R98138,331,,,Krtsanisi Street - Station Square,,კრწანისის ქუჩა - სადგურის მოედანი,,,Station Square 1,,სადგურის მოედანი 1,,,Krtsanisi Street,,კრწანისის ქუჩა,,,
1:R29934,332,,,Nutsubidze Plato M/D-4 - Station Square,,ნუცუბიძის პლატო IV მ/რ - სადგურის მოედანი,,,Nutsubidze M/D II-IV,,ნუცუბიძის II-IV მ/რ,,,Station Square 1,,სადგურის მოედანი 1,,,
1:R90569,333,,,Vazisubani M/D-2 - Tbilisi Mall,,ვაზისუბნის II მ/რ - თბილისი მოლი,,,Tbilisi Mall,,თბილისი მოლი,,,Vazisubani II M/D,,ვაზისუბნის II მ/რ,,,
1:R29973,334,,,Tskneti - M/S Delisi,,წყნეთი - მ/ს დელისი,,,M/S Delisi,,მ/ს დელისი,,,Tskneti,,წყნეთი,,,
1:R97690,335,,,"Gldani M/D VII,VIII - Didi Digomi M/D-4",,გლდანი VII - VIII მ/რ - დიდი დიღმის IV მ/რ,,,Didi Dighomi IV M/D,,დიდი დიღმის IV მ/რ,,,Gldani VII-VIII M/D,,გლდანის VII-VIII მ/რ,,,
1:R97702,336,,,Aviaqimia St (Lotkini) - Railway Crossing Bridge,,ავიაქიმიის ქ. (ლოტკინი) - გადასასვლელი ხიდი,,,Railway Bridge,,გადასასვლელი ხიდი,,,Aviakimia St (Lotkini),,ავიაქიმიის ქ.(ლოტკინი),,,
1:R97706,337,,,Station Square - Airport,,სადგურის მოედანი - აეროპორტი,,,Station Square 1,,სადგურის მოედანი 1,,,Airport ✈,,აეროპორტი ✈,,,
1:R97710,338,,true,Agrarian University - M/S Didube (Lower Exit),,აგრარული უნივერსიტეტი -  მ/ს დიდუბე (ქვედა),,,M/S Didube - Agrarian University,,მ/ს დიდუბე - აგრარული უნივერსიტეტი,,,DavitAghmashenebeli Alley13th Kilometer,,დავით აღმაშენებლის ხეივანი მე-13 კილომეტრი,,,
1:R44533,339,,true,Gldani VII-VIII M/D - M/S Akhmeteli Theatre,,გლდანის VII-VIII მ/რ - მ/ს ახმეტელის თეატრი,,,"M/S Akhmeteli - Gldani M/D VII,VIII",,მ/ს ახმეტელი-გლდანის VII-VIII მ/რ,,,Gldani Lake,,გლდანის ტბა,,,
1:R97718,340,,,Varketili Farming - Lobjanidze St (Isani),,ვარკეთილის მეურნეობა - ლობჟანიძის ქ. (ისანი),,,Varketili Farm,,ვარკეთილის მეურნეობა,,,Lobjanidze St (Isani),,ლობჟანიძის ქ.(ისანი),,,
1:R97722,341,,,Village Tsinubani - M/S Isani,,სოფელი წინუბანი - მ/ს ისანი,,,Tsinubani,,სოფ. წინუბანი,,,"""Isani"" M/S",,"მ/ს ""ისანი""",,,
1:R97726,342,,,Ikalto Hill - Baratashvili St,,იყალთოს გორა - ბარათაშვილის ქ.,,,Ikalto Hill,,იყალთოს გორა,,,Baratashvili St,,ბარათაშვილის ქ.,,,
1:R30721,343,,,Vazisubani M/D-2 - Zemo Ponichala,,ვაზისუბნის II მ/რ - ზემო ფონიჭალა,,,Zemo Ponichala,,ზემო ფონიჭალა,,,Vazisubani II M/D,,ვაზისუბნის II მ/რ,,,
1:R30746,344,,,Baratashvili St - Zemo Ponichala Settlement,,ბარათაშვილის ქ. - ზემო ფონიჭალის დასახლება,,,Zemo Ponichala,,ზემო ფონიჭალა,,,Baratashvili St,,ბარათაშვილის ქ.,,,
1:R32821,345,,,Kvemo Ponichala Settlement - Vake-Bagebi,,ქვემო ფონოჭალის დასახლება - ვაკე-ბაგები,,,Kvemo Ponichala,,ქვემო ფონიჭალა,,,Vake-Bagebi,,ვაკე-ბაგები,,,
1:R32831,346,,,Kvemo Ponichala Settlement - Hualing Tbilisi,,ქვემო ფონიჭალის დასახლება-ჰუალინგ თბილისი,,,Hualing Tbilisi,,ჰუალინგ თბილისი,,,Kvemo Ponichala,,ქვემო ფონიჭალა,,,
1:R98195,347,,,Nutsubidze M/D-1 - Station Square,,ნუცუბიძის I მ/რ - სადგურის მოედანი,,,Nucubidze I M/D,,ნუცუბიძის I მ/რ,,,Station Square 2,,სადგურის მოედანი 2,,,
1:R98450,348,,,Village Gldani - M/S  Akhmeteli Theatre,,სოფ. გლდანი - მ/ს ახმეტელის თეატრი,,,Gldani Village,,სოფ. გლდანი,,,M/S Akhmeteli Theatre,,მ/ს ახმეტელის თეატრი,,,
1:R98201,349,,,Nutsubidze Plato M/D-3 - Station Square,,ნუცუბიძის პლატო III მ/რ - სადგურის მოედანი,,,Nucubidze Plateau III M/D,,ნუცუბიძის პლატო III მ/რ,,,Station Square 1,,სადგურის მოედანი 1,,,
1:R98206,350,,,"Tbilisi Sea Plaza - Vazisubani M/D-3, BL-2 - Baratashvili St",,"თბილისის ზღვის პლაზა - ვაზისუბნის III მ/რ, II კვ. - ბარათაშვილის ქ.",,,Baratashvili St,,ბარათაშვილის ქ.,,,Tbilisi Sea Plaza,,თბილისის ზღვის პლაზა,,,
1:R98211,351,,,Gldani-Gldanula - Vake-Bagebi,,გლდანი-გლდანულა - ვაკე-ბაგები,,,Vake-Bagebi,,ვაკე-ბაგები,,,Gldani-Gldanula,,გლდანი-გლდანულა,,,true
1:R98221,352,,,Dolidze St - Baratashvili St,,დოლიძის ქ. - ბარათაშვილის ქ.,,,Dolidze St,,დოლიძის ქუჩა,,,Baratashvili St,,ბარათაშვილის ქ.,,,
1:R98227,353,,,Kukia - Station Square,,კუკია - სადგურის მოედანი,,,Tsaishi St (Kukia),,ცაიშის ქ. (კუკია),,,Station Square 1,,სადგურის მოედანი 1,,,
1:R97698,354,,,Station Square - Tskneti,,სადგურის მოედანი - წყნეთი,,,Tskneti,,წყნეთი,,,Station Square 1,,სადგურის მოედანი 1,,,
1:R98186,355,,,Village Gldani - M/S Akhmeteli Theatre,,სოფელი გლდანი - მ/ს ახმეტელის თეატრი,,,Village Gldani,,სოფელი გლდანი,,,M/S Akhmeteli Theatre,,მ/ს ახმეტელის თეატრი,,,
1:R98279,356,,,Orkhevi - M/S Isani,,ორხევი - მ/ს ისანი,,,Orkhevi,,ორხევი,,,"""Isani"" M/S",,"მ/ს ""ისანი""",,,
1:R98463,357,,true,Zahesi - M/S Didube  (Lower),,ზაჰესი - მ/ს დიდუბე (ქვედა),,,M/S Didube - Zahesi,,მ/ს დიდუბე-ზაჰესი,,,Freedom St #70,,თავისუფლების ქუჩა #70,,,
1:R98284,358,,,Nugzar Endeladze Square (Vake) - Baratashvili Str,,ნუგზარ ენდელაძის მ-ნი (ვაკე) - ბარათაშვილის ქუჩა,,,Nugzar Endeladze Square,,ნუგზარ ენდელაძის მ-ნი,,,Baratashvili St,,ბარათაშვილის ქ.,,,
1:R98289,359,,,Baratashvili St - Vake-Bagebi,,ბარათაშვილის ქ. - ვაკე - ბაგები,,,Vake-Bagebi,,ვაკე-ბაგები,,,Baratashvili St,,ბარათაშვილის ქ.,,,true
1:R98294,360,,,M/S Ghrmaghele - Railway Passage Bridge,,"მ/ს ""ღრმაღელე""- გადასასვლელი ხიდი",,,Railway Bridge,,გადასასვლელი ხიდი,,,Ghrmagele M/S,,მ/ს ღრმაღელე,,,
1:R97481,361,,,Lilo-Lochini - M/S Isani,,ლილო-ლოჭინი - მ/ს ისანი,,,"""Isani"" M/S",,"მ/ს ""ისანი""",,,Lilo-Lochini,,ლილო-ლოჭინი,,,
1:R98302,362,,,"Zghvisubani M/D-3, Block-4 - Station Square",,"ზღვის უბნის III მ/რ, IV კვ - სადგურის მოედანი",,,Sea District III M/D,,"ზღვის უბნის III მ/რ, IV კვ",,,Station Square 2,,სადგურის მოედანი 2,,,
1:R30661,363,,,Village Tkhinvala - Tbilisi State University H/B,,სოფელი თხინვალი - სახ. უნივერსიტეტის მ/კ,,,State University H/B,,სახ.უნივერსიტეტის მ/კ,,,Tkhinvali Village,,სოფელი თხინვალი,,,
1:R98471,364,,,M/S Rustaveli - Mtatsminda Park,,"მ/ს ""რუსთაველი"" - მთაწმინდის პარკი",,,Mtatsminda Park,,მთაწმინდის პარკი,,,Rustaveli M/S,,მ/ს რუსთაველი,,,
1:R98216,365,,,Village Gldani - Avchala - M/S Akhmeteli Theatre,,სოფელი გლდანი - ავჭალა - მ/ს ახმეტელის თეატრი,,,Avchala - Village Gldani,,ავჭალა - სოფელი გლდანი,,,M/S Akhmeteli Theatre,,მ/ს ახმეტელის თეატრი,,,
1:R99060,366,,true,M/S Varketili - Varketili Zemo Plato,,მ/ს ვარკეთილი - ვარკეთილის ზემო პლატო,,,M/S Varketili - Varketili Zemo Plato,,მ/ს ვარკეთილი - ზემო პლატო,,,M/S Varketili,,"მ/ს ""ვარკეთილი""",,,
1:R97497,367,,,Village Dighomi - M/S Didube,,სოფ. დიღომი - მ/ს დიდუბე,,,Digomi Village,,სოფ. დიღომი,,,M/S Didube,,მ/ს დიდუბე,,,
1:R98308,368,,,9 Dzma St-Tsaishi St - Station Square,,9 ძმის ქ. -ცაიშის ქ. - სადგურის მოედანი,,,Station Square 1,,სადგურის მოედანი 1,,,Tsaishi St,,ცაიშის ქ.,,,
1:R98481,369,,,M/S Didube (Upper Exit) - M/S Gotsiridze,,მ/ს დიდუბე (ზედა) - მ/ს გოცირიძე,,,M/S Gotsiridze,,მ/ს გოცირიძე,,,M/S Didube (Upper Exit),,მ/ს დიდუბე (ზედა),,,
1:R98313,370,,true,Bichvinta St (Avchala) - Pirosmani Square,,ბიჭვინთის ქ. (ავჭალა) - ფიროსმანის მოედანი,,,Pirosmani Square - Avchala,,ფიროსმანის მ-ავჭალა,,,Kvemo Avchala,,ქვემო ავჭალა,,,
1:R98318,371,,,Varketili-3 IV M/D - Baratashvili St,,ვარკეთილი-3 IV მ/რ - ბარათაშვილის ქ.,,,Varketili IV M/D,,ვარკეთილი 3 IV მ/რ,,,Baratashvili St,,ბარათაშვილის ქ.,,,
1:R98323,372,,,Nakaduli St - Saint Barbare District,,ნაკადულის ქ . - წმინდა ბარბარეს უბანი,,,Nakaduli St,Nakaduli St.,ნაკადულის ქ.,,,Saint Barbare District,,წმინდა ბარბარეს უბანი,,,
1:R98328,373,,,Gldanula - M/S Akhmeteli Theatre,,გლდანულა - მ/ს ახმეტელის თეატრი,,,Gldanula,,გლდანულა,,,M/S Akhmeteli Theatre,,მ/ს ახმეტელის თეატრი,,,
1:R98438,374,,,Tabakhmela - Baratashvili St,,ტაბახმელა - ბარათაშვილის ქ.,,,Baratashvili St,,ბარათაშვილის ქ.,,,Tabakhmela,,ტაბახმელა,,,
1:R98334,375,,,"Zghvisubani M/D-3, Block-4 - M/S Sarajishvili",,"ზღვის უბნის III მ/რ, IV კვ - მ/ს ""სარაჯიშვილი""",,,Sea District III M/D,,"ზღვის უბნის III მ/რ, IV კვ",,,Sarajishvili M/S,,მ/ს სარაჯიშვილი,,,
1:R97682,376,,,Afrika Stlmt. (Kiziki St) - M/S Isani,,აფრიკის დას. (ქიზიყის ქ.) - მ/ს ისანი,,,"""Isani"" M/S",,"მ/ს ""ისანი""",,,Kiziki St,,ქიზიყის ქ.,,,
1:R74912,377,,true,"Tbilisi Sea Plaza - Vazisubani M/D-3, BL-2 - M/S Varketili",,"თბილისის ზღვის პლაზა - ვაზისუბნის III მ/რ, II კვ.- მ/ს ვარკეთილი",,,M/S Varketili - Sea Plaza,,მ/ს ვარკეთილი-ზღვის პლაზა,,,Tbilisi Sea Plaza,,თბილისის ზღვის პლაზა,,,
1:R98340,378,,,Japaridze Street - Station Square 1,,ჯაფარიძის ქუჩა - სადგურის მოედანი 1,,,Japaridze Street,,ჯაფარიძის ქუჩა,,,Station Square 1,,სადგურის მოედანი 1,,,
1:R98346,379,,,Mukhiani M/D-3 - M/S Akhmeteli Theatre,,მუხიანის III მ/რ - მ/ს ახმეტელის თეატრი,,,Mukhiani III M/D,,მუხიანის III მ/რ,,,M/S Akhmeteli Theatre,,მ/ს ახმეტელის თეატრი,,,
1:R97505,380,,,Kojori - Baratashvili St,,კოჯორი - ბარათაშვილის ქ.,,,Kojori,,კოჯორი,,,Baratashvili St,,ბარათაშვილის ქ.,,,
1:R97509,381,,,Zahesi - Station Square,,ზაჰესი - სადგურის მოედანი,,,Station Square 1,,სადგურის მოედანი 1,,,Zahesi,,ზაჰესი,,,
1:R98458,382,,,Shindisi - Baratashvili St,,შინდისი - ბარათაშვილის ქ.,,,Baratashvili St,,ბარათაშვილის ქ.,,,Shindisi,,შინდისი,,,
1:R30691,383,,,M/S State University - Baratashvili St,,მ/ს სახელმწიფო უნივერსიტეტი - ბარათაშვილის ქ.,,,M/S State University,,მ/ს სახელმწიფო უნივერსიტეტი,,,Baratashvili St,,ბარათაშვილის ქ.,,,
1:R98379,384,,,Patara Dighomi - Station Square,,პატარა დიღომი - სადგურის მოედანი,,,Station Square 1,,სადგურის მოედანი 1,,,Little Dighomi,,პატარა დიღომი,,,
1:R29925,385,,true,Vake-Saburtalo,,ვაკე - საბურთალო,,,Vake - Saburtalo,,ვაკე-საბურთალო,,,Tandzia Street,,ტანძიის ქუჩა,,,
1:R98384,386,,,Mukhiani M/D-3 - Station Square,,მუხიანის III მ/რ - სადგურის მოედანი,,,Mukhiani III M/D,,მუხიანის III მ/რ,,,Station Square 1,,სადგურის მოედანი 1,,,
1:R30682,387,,true,Saburtalo-Vake,,საბურთალო-ვაკე,,,Saburtalo - Vake,,საბურთალო - ვაკე,,,Republican Hospital,,რესპუბლიკური საავადმყოფო,,,
1:R98394,388,,,Nutsubidze M/D II-IV - Baratashvili Street,,ნუცუბიძის II-IV მ/რ - ბარათაშვილის ქ.,,,Baratashvili St,,ბარათაშვილის ქ.,,,Nutsubidze M/D II-IV,,ნუცუბიძის II-IV მ/რ,,,
1:R98399,389,,,M/S Didube - M/S State University,,მ/ს დიდუბე - მ/ს სახელმწიფო უნივერსიტეტი,,,M/S Didube,,მ/ს დიდუბე,,,M/S State University,,მ/ს სახელმწიფო უნივერსიტეტი,,,
1:R98404,390,,,Okrokana - Baratashvili St,,ოქროყანა - ბარათაშვილის ქ.,,,Oqrokana,,ოქროყანა,,,Baratashvili St,,ბარათაშვილის ქ.,,,
1:R98409,391,,,M/S Avlabari - Gotua Street,,"მ/ს ""ავლაბარი"" -  გოთუას ქუჩა",,,M/S Avlabari,,მ/ს ავლაბარი,,,Gotua Str,,გოთუას ქ.,,,
1:R98417,392,,,Station Square 1 - Tbilisi State University H/B,,სადგურის მოედანი 1 - სახ. უნივერსიტეტის მ/კ,,,Station Square 1,,სადგურის მოედანი 1,,,State University H/B,,სახ.უნივერსიტეტის მ/კ,,,
1:R97730,393,,,Kvareli Street (Metromsheni) - Baratashvili St,,ყვარლის ქ. (მეტრომშენი) - ბარათაშვილის ქ.,,,Baratashvili St,,ბარათაშვილის ქ.,,,Kvareli Street (Metromsheni),,ყვარლის ქ. (მეტრომშენი),,,
1:R98422,394,,,"Zghvisubani M/D-3, Block-4 - M/S Didube (Upper Exit)",,"ზღვის უბნის III მ/რ, IV კვ - მ/ს დიდუბე (ზედა)",,,M/S Didube (Upper Exit),,მ/ს დიდუბე (ზედა),,,Sea District III M/D,,ზღვის უბნის III მ/რ.,,,
1:R98427,395,,,Mukhiani M/D-3 - Baratashvili St,,მუხიანის III მ/რ - ბარათაშვილის ქ.,,,Mukhiani III M/D,,მუხიანის III მ/რ,,,Baratashvili St,,ბარათაშვილის ქ.,,,
1:R99057,396,,,Airport Settlement - M/S Isani,,აეროპორტის დასახლება - მ/ს ისანი,,,"""Isani"" M/S",,"მ/ს ""ისანი""",,,Airport Settlement,,აეროპორტის დასახლება,,,
1:R98389,397,,true,Baratashvili St - Saburtalo-Vake,,ბარათაშვილის ქ. - საბურთალო-ვაკე,,,Baratashvili - Saburtalo,,ბარათაშვილი-საბურთალო,,,Nikoloz Baratashvili Street,,ნიკოლოზ ბარათაშვილის ქუჩა,,,
1:R98433,398,,,Nutsubidze M/D II-IV-V - M/S Delisi,,"ნუცუბიძის II-IV-V მ/რ   - მ/ს ""დელისი""",,,M/S Delisi,,მ/ს დელისი,,,Nutsubidze M/D II-IV-V,,ნუცუბიძის II-IV-V მ/რ,,,
1:R99180,399,,,M/S Varketili - Lilo Mall,,მ/ს ვარკეთილი - ლილო მოლი,,,M/S Varketili,,მ/ს ვარკეთილი,,,Lilo Mall,,ლილო მოლი,,,
1:minibusR1117,401,,true,"იოსელიანის IV შეს. - მ/ს ""სახელმწიფო უნივერსიტეტი""",,"იოსელიანის IV შეს. - მ/ს ""სახელმწიფო უნივერსიტეტი""",,,"იოსელიანის IV შეს. - მ/ს ""სახელმწიფო უნივერსიტეტი""",,"იოსელიანის IV შეს. - მ/ს ""სახელმწიფო უნივერსიტეტი""",,,იოსელიანის IV შესახვევი,,იოსელიანის IV შესახვევი,,,
1:minibusR1188,402,,true,ყიფშიძის ქ. - მრგვალი ბაღი,,ყიფშიძის ქ. - მრგვალი ბაღი,,,"Kipshidze St - ""Mrgvali Bagi"" Square",,ყიფშიძის ქ. - მრგვალი ბაღი,,,ყიფშიძის 8-10-ის მიმდებარედ,,ყიფშიძის 8-10-ის მიმდებარედ,,,
1:minibusR11458,403,,true,"ვარკეთილი 3, II მ/რ - მ/ს ""ვარკეთილი""",,"ვარკეთილი 3, II მ/რ - მ/ს ""ვარკეთილი""",,,"ვარკეთილი 3, II მ/რ",,"ვარკეთილი 3, II მ/რ",,,ნიკოლოზ ლანდიას ქ. #21,,ნიკოლოზ ლანდიას ქ. #21,,,
1:minibusR1162,404,,,მ/ს სახელმწიფო უნივერსიტეტი - ნაფეტვრების მიმართულებით,,მ/ს სახელმწიფო უნივერსიტეტი - ნაფეტვრების მიმართულებით,,,M/S State University,,მ/ს სახელმწიფო უნივერსიტეტი,,,Road to Nafetvrebi,,ნაფეტვრების გზა,,,
1:minibusR1227,405,,true,"ნუცუბიძის V მ/რ - მ/ს ""დელისი""",,"ნუცუბიძის V მ/რ - მ/ს ""დელისი""",,,"ნუცუბიძის V მ/რ - მ/ს ""დელისი""",,"ნუცუბიძის V მ/რ - მ/ს ""დელისი""",,,Nutsubidze Plato M/D-5,,ნუცუბიძის პლატო V მ/რ,,,
1:minibusR11416,406,,true,"ვარკეთილი IV მ/რ, II რიგი - მ/ს ""ვარკეთილი""",,"ვარკეთილი IV მ/რ, II რიგი - მ/ს ""ვარკეთილი""",,,"ვარკეთილი IV მ/რ, II რიგი - მ/ს ""ვარკეთილი""",,"ვარკეთილი IV მ/რ, II რიგი - მ/ს ""ვარკეთილი""",,,"ვარკეთილი, მეორე რიგი",,"ვარკეთილი, მეორე რიგი",,,
1:minibusR11422,407,,true,"დირსი - მ/ს ""სამგორი""",,"დირსი - მ/ს ""სამგორი""",,,"დირსი - მ/ს ""სამგორი""",,"დირსი - მ/ს ""სამგორი""",,,შოთა ნადირაშვილის ქ,,შოთა ნადირაშვილის ქ,,,
1:minibusR1766,408,,true,"მ/ს ""რუსთაველი"" - მ/ს ""თავისუფლების მოედანი""",,"მ/ს ""რუსთაველი"" - მ/ს ""თავისუფლების მოედანი""",,,Rustaveli M/S,,მ/ს რუსთაველი,,,"M/S ""Rustaveli""",,"მ/ს ""რუსთაველი""",,,
1:minibusR2141,409,,true,ქვემო ფონიჭალა - ზემო ფონიჭალა,,ქვემო ფონიჭალა - ზემო ფონიჭალა,,,ქვემო ფონიჭალა - ზემო ფონიჭალა,,ქვემო ფონიჭალა - ზემო ფონიჭალა,,,Batumi Street,,ბათუმის ქუჩა,,,
1:minibusR2092,410,,true,ღოღობერიძის ქ.- რუსთავის გზატკ. - თავისუფლების ქ.,,ღოღობერიძის ქ.- რუსთავის გზატკ. - თავისუფლების ქ.,,,ღოღობერიძის ქ.- რუსთავის გზატკ. - თავისუფლების ქ.,,ღოღობერიძის ქ.- რუსთავის გზატკ. - თავისუფლების ქ.,,,ლევან ღოღობერიძის ქ. #47,,ლევან ღოღობერიძის ქ. #47,,,
1:minibusR2111,411,,true,მცხეთელის ქ. - ქვემო ფონიჭალა,,მცხეთელის ქ. - ქვემო ფონიჭალა,,,მარნეულის ქ.,,მარნეულის ქ.,,,Marneuli Street,,მარნეულის ქუჩა,,,
1:minibusR11452,412,,true,აფხაზეთის ქ. - ქვემო ფონიჭალა,,აფხაზეთის ქ. - ქვემო ფონიჭალა,,,აფხაზეთის ქ. - ქვემო ფონიჭალა,,აფხაზეთის ქ. - ქვემო ფონიჭალა,,,Kvemo Ponichala Center,,ქვემო ფონიჭალის ცენტრი,,,
1:minibusR2814,413,,true,"ვარკეთილი 3, II მ/რ - მ/ს ""ვარკეთილი""",,"ვარკეთილი 3, II მ/რ - მ/ს ""ვარკეთილი""",,,"ვარკეთილი 3, II მ/რ - მ/ს ""ვარკეთილი""",,"ვარკეთილი 3, II მ/რ - მ/ს ""ვარკეთილი""",,,"ვარკეთილი-3, მე-2 მ/რ, კორპუსი #32",,"ვარკეთილი-3, მე-2 მ/რ, კორპუსი #32",,,
1:minibusR2695,414,,true,გადასასვლელი ხიდი - ძმობის II ქუჩა,,გადასასვლელი ხიდი - ძმობის II ქუჩა,,,გადასასვლელი ხიდი - ძმობის II ქუჩა,,გადასასვლელი ხიდი - ძმობის II ქუჩა,,,გადასასავლელი ხიდი,,გადასასავლელი ხიდი,,,
1:minibusR12833,415,,true,მ/ს ვარკეთილი - სამხედრო დასახლება,,მ/ს ვარკეთილი - სამხედრო დასახლება,,,Samkhedro Settlement,,სამხედრო დასახლება,,,სამხედრო დასახლება მე-2 ქუჩა,,სამხედრო დასახლება მე-2 ქუჩა,,,
1:minibusR24135,416,,true,სადგურის მოედანი - ლომთათიძის ქ.,,სადგურის მოედანი - ლომთათიძის ქ.,,,სადგურის მოედანი - ლომთათიძის ქ.,,სადგურის მოედანი - ლომთათიძის ქ.,,,სადგურის მოედანი (მიკროავტობუსები),,სადგურის მოედანი (მიკროავტობუსები),,,
1:minibusR11356,417,,true,"გიორგიწმინდა - მ/ს ""ახმეტელის თეატრი""",,"გიორგიწმინდა - მ/ს ""ახმეტელის თეატრი""",,,"გიორგიწმინდა - მ/ს ""ახმეტელის თეატრი""",,"გიორგიწმინდა - მ/ს ""ახმეტელის თეატრი""",,,დავით აღმაშენებლის #100,,დავით აღმაშენებლის #100,,,
1:minibusR11398,418,,true,ივერთუბანი - გადასასვლელი ხიდი,,ივერთუბანი - გადასასვლელი ხიდი,,,ივერთუბანი - გადასასვლელი ხიდი,,ივერთუბანი - გადასასვლელი ხიდი,,,მერი შერვაშიძის ქ.,,მერი შერვაშიძის ქ.,,,
1:minibusR1648,419,,true,მ/ს სახ. უნივერსიტეტი - სოფ. აგარაკები,,მ/ს სახ. უნივერსიტეტი - სოფ. აგარაკები,,,სოფ. აგარაკები - მ/ს სახ. უნივერსიტეტი,,სოფ. აგარაკები - მ/ს სახ. უნივერსიტეტი,,,M/S Technical University,,"მ/ს ""სახელმწიფო უნივერსიტეტი""",,,
1:minibusR2726,420,,true,"მ/ს ""რუსთაველი"" - ჯაფარიძის ქ.",,"მ/ს ""რუსთაველი"" - ჯაფარიძის ქ.",,,"ჯაფარიძის ქ. - მ/ს ""რუსთაველი""",,"ჯაფარიძის ქ. - მ/ს ""რუსთაველი""",,,ნინო ჟვანიას ქუჩა #67,,ნინო ჟვანიას ქუჩა #67,,,
1:minibusR13291,421,,true,"ზღვისუბანი III-IV მ/რ - მ/ს ""გურამიშვილი""",,"ზღვისუბანი III-IV მ/რ - მ/ს ""გურამიშვილი""",,,"ზღვისუბანი III-IV მ/რ - მ/ს ""გურამიშვილი""",,"ზღვისუბანი III-IV მ/რ - მ/ს ""გურამიშვილი""",,,M/S Guramishvili,,"მ/ს ""გურამიშვილი""",,,
1:minibusR11362,422,,,"სოფ. დიღომი - დიდი დიღომი - მ/ს ""დიდუბე""",,"სოფ. დიღომი - დიდი დიღომი - მ/ს ""დიდუბე""",,,სოფელი დიღომი,,სოფელი დიღომი,,,"მ/ს ""დიდუბე""",,"მ/ს ""დიდუბე""",,,
1:minibusR2759,423,,true,"ვარკეთილი, ზემო პლატო II მ/რ - მ/ს ""ვარკეთილი""",,"ვარკეთილი, ზემო პლატო II მ/რ - მ/ს ""ვარკეთილი""",,,"ვარკეთილი, ზემო პლატო II მ/რ - მ/ს ""ვარკეთილი""",,"ვარკეთილი, ზემო პლატო II მ/რ - მ/ს ""ვარკეთილი""",,,M/S Varketili,,"მ/ს ""ვარკეთილი""",,,
1:minibusR2841,424,,true,"მესამე მასივი - მ/ს ""ვარკეთილი""",,"მესამე მასივი - მ/ს ""ვარკეთილი""",,,"მესამე მასივი - მ/ს ""ვარკეთილი""",,"მესამე მასივი - მ/ს ""ვარკეთილი""",,,M/S Varketili,,"მ/ს ""ვარკეთილი""",,,
1:minibusR2655,425,,true,"კონსტანტინე ამირეჯიბის ქ - მ/ს ""სამგორი""",,"კონსტანტინე ამირეჯიბის ქ - მ/ს ""სამგორი""",,,"კონსტანტინე ამირეჯიბის ქ - მ/ს ""სამგორი""",,"კონსტანტინე ამირეჯიბის ქ - მ/ს ""სამგორი""",,,კონსტანტინე ამირაჯიბის ქ. #71,,კონსტანტინე ამირაჯიბის ქ. #71,,,
1:minibusR3097,426,,true,"გლდანის II-IV მ/რ - მ/ს ""ახმეტელის თეატრი""",,"გლდანის II-IV მ/რ - მ/ს ""ახმეტელის თეატრი""",,,"გლდანის II-IV მ/რ - მ/ს ""ახმეტელის თეატრი""",,"გლდანის II-IV მ/რ - მ/ს ""ახმეტელის თეატრი""",,,Metro Station Akhmeteli Theatre,,"მ/ს ""ახმეტელის თეატრი""",,,
1:minibusR11434,427,,true,გორგასლის შეს. - გრიშაშვილის ქ.,,გორგასლის შეს. - გრიშაშვილის ქ.,,,გორგასლის  - გრიშაშვილის ქ.,,გორგასლის  - გრიშაშვილის ქ.,,,Bejan Kalandadze Street,,ბეჟან კალანდაძის ქუჩა,,,
1:minibusR25003,428,,true,მ/ს ისანი - ყვარლისა და თეოდორ უშაკოვის ქუჩების გადაკვეთა,,მ/ს ისანი - ყვარლისა და თეოდორ უშაკოვის ქუჩების გადაკვეთა,,,"მ/ს ""ისანი"" - მეტრომშენი",,"მ/ს ""ისანი"" - მეტრომშენი",,,Giorgi Ghviniashvili St #27,,გიორგი ღვინიაშვილის ქუჩა #27,,,
1:minibusR2603,429,,true,"მუხიანი IVბ მ/რ - მ/ს ""ახმეტელის თეატრი""",,"მუხიანი IVბ მ/რ - მ/ს ""ახმეტელის თეატრი""",,,"მუხიანი IVბ მ/რ - მ/ს ""ახმეტელის თეატრი""",,"მუხიანი IVბ მ/რ - მ/ს ""ახმეტელის თეატრი""",,,"Mukhiani M/D-4b, #42",,"მუხიანის IVბ მ/რ, კორპუსი #42",,,
1:minibusR12857,430,,true,კვირაცხოვლის ქ. - დავით აღმაშენებლის ქ.,,კვირაცხოვლის ქ. - დავით აღმაშენებლის ქ.,,,კვირაცხოვლის ქ. - სარაჯიშვილის ქ.,,კვირაცხოვლის ქ. - სარაჯიშვილის ქ.,,,Tetri Dukani Street,,თეთრი დუქნის ქუჩა,,,
1:minibusR24637,431,,,ბიჭვინთის ქ. - იონა ვაკელის ქ.,"Avchala, Bichvinta St. – Republican Hospital",ბიჭვინთის ქ. - იონა ვაკელის ქ.,ბიჭვინთის ქ. – იონა ვაკელის ქ.,,ავჭალა (ბიჭვინთის ქ.),"Avchala, Bichvinta St.",ავჭალა (ბიჭვინთის ქ.),,,რესპუბლიკური საავადმყოფო,Republican Hospital,რესპუბლიკური საავადმყოფო,,,
1:minibusR25727,432,,true,შანავას ქ. - მ/ს სარაჯიშვილი,,შანავას ქ. - მ/ს სარაჯიშვილი,,,შანავას ქ. - მ/ს სარაჯიშვილი,,შანავას ქ. - მ/ს სარაჯიშვილი,,,"ნუგზარ შანავას ქუჩა, #26",,"ნუგზარ შანავას ქუჩა, #26",,,
1:minibusR11404,433,,true,"კვანტალიანის ქ. - მ/ს ""დიდუბე""",,"კვანტალიანის ქ. - მ/ს ""დიდუბე""",,,"კვანტალიანის ქ. - მ/ს ""დიდუბე""",,"კვანტალიანის ქ. - მ/ს ""დიდუბე""",,,კვანტალიანის ქ,,კვანტალიანის ქ,,,
1:minibusR12797,434,,true,"საინგილოს ქ. - მ/ს ""ავლაბარი""",,"საინგილოს ქ. - მ/ს ""ავლაბარი""",,,"საინგილოს ქ. - მ/ს ""ავლაბარი""",,"საინგილოს ქ. - მ/ს ""ავლაბარი""",,,ნიაბის I შესახვევი 39,,ნიაბის I შესახვევი 39,,,
1:minibusR11368,435,,true,იოსელიანის ქ. - გადასასვლელი ხიდი,,იოსელიანის ქ. - გადასასვლელი ხიდი,,,იოსელიანის ქ. - გადასასვლელი ხიდი,,იოსელიანის ქ. - გადასასვლელი ხიდი,,,დავით იოსელიანის #204,,დავით იოსელიანის #204,,,
1:minibusR2442,436,,,ჯავის ქ. - სადგურის მოედანი,,ჯავის ქ. - სადგურის მოედანი,,,სადგურის მოედანი,Station Square,სადგურის მოედანი,,,79 Java St.,,ჯავის ქ. #79,,,
1:minibusR2463,437,,true,სამღერეთის ქ. - გადასასვლელი ხიდი,,სამღერეთის ქ. - გადასასვლელი ხიდი,,,სამღერეთის ქ. - გადასასვლელი ხიდი,,სამღერეთის ქ. - გადასასვლელი ხიდი,,,სამღერეთის ქუჩა #10,,სამღერეთის ქუჩა #10,,,
1:minibusR12827,438,,,ჭიჭინაძის ქ. - სადგური ველი,,ჭიჭინაძის ქ. - სადგური ველი,,,Veli Railway Station,,სადგური ველი,,,Besarion Chichinadze St. #27,,ჭიჭინაძის ქ. #27,,,
1:minibusR24247,439,,true,"რომან ჭელიძის ქ. - მ/ს ""ახმეტელის თეატრი""",,"რომან ჭელიძის ქ. - მ/ს ""ახმეტელის თეატრი""",,,"რომან ჭელიძის ქ. - მ/ს ""ახმეტელის თეატრი""",,"რომან ჭელიძის ქ. - მ/ს ""ახმეტელის თეატრი""",,,რომან ჭელიძის ქუჩა #25,,რომან ჭელიძის ქუჩა #25,,,
1:minibusR24309,440,,true,"გედევანიშვილის ქ. - მ/ს ""ავლაბარი""",,"გედევანიშვილის ქ. - მ/ს ""ავლაბარი""",,,"გედევანიშვილის ქ. - მ/ს ""ავლაბარი""",,"გედევანიშვილის ქ. - მ/ს ""ავლაბარი""",,,გედევანიშვილის ქ.#27,,გედევანიშვილის ქ.#27,,,
1:minibusR13277,441,,true,"სოფ. დიღომი, აღმაშენებლის 85 - რუსთაველის ქ.",,"სოფ. დიღომი, აღმაშენებლის 85 - რუსთაველის ქ.",,,"Digomi Village, Aghmashenebeli St. #85 - Digomi Village, Rustaveli St.",,"სოფ. დიღომი, აღმაშენებლის ქ. #85 - სოფ. დიღომი, რუსთაველის ქ.",,,Village Dighomi Center,,სოფელ დიღმის ცენტრი,,,
1:minibusR25567,442,,,"დიდი დიღმის IV მ/რ - მ/ს ""დიდუბე""",,"დიდი დიღმის IV მ/რ - მ/ს ""დიდუბე""",,,Didi Dighomi IV M/D,,დიდი დიღმის IV მ/რ,,,"მ/ს ""დიდუბე""",,"მ/ს ""დიდუბე""",,,
1:minibusR13346,443,,true,სოფ. თელოვანი - სოფ. დიღომი,,სოფ. თელოვანი - სოფ. დიღომი,,,Digomi Village,,სოფ. დიღომი,,,სოფ. თელოვანი,,სოფ. თელოვანი,,,
1:minibusR2770,444,,true,"ზღვისუბნის IV მ/რ - მ/ს ""სარაჯიშვილი""",,"ზღვისუბნის IV მ/რ - მ/ს ""სარაჯიშვილი""",,,"ზღვისუბნის IV მ/რ - მ/ს ""სარაჯიშვილი""",,"ზღვისუბნის IV მ/რ - მ/ს ""სარაჯიშვილი""",,,"ზღვის უბნის, IV მ/რ,კორპ. 10",,"ზღვის უბნის, IV მ/რ,კორპ. 10",,,
1:minibusR2478,445,,,"ბარონ დე ბაის ქ. ავთანდილის ქ. ლ. ანდრონიკაშვილის ქ. მ/ს ""დიდუბე""",,"ბარონ დე ბაის ქ. ავთანდილის ქ. ლ. ანდრონიკაშვილის ქ. მ/ს ""დიდუბე""",,,M/S Didube,,მ/ს დიდუბე,,,ბარონ დე ბაის ქ.,,ბარონ დე ბაის ქ.,,,
1:minibusR13486,446,,true,"დიდი ტბა, კვეესის ქ. - მ/ს ""ახმეტელის თეატრი""",,"დიდი ტბა, კვეესის ქ. - მ/ს ""ახმეტელის თეატრი""",,,"დიდი ტბა, კვეესის ქ. - მ/ს ""ახმეტელის თეატრი""",,"დიდი ტბა, კვეესის ქ. - მ/ს ""ახმეტელის თეატრი""",,,კლარა კვეესის და თეთრი ტბის კვეთა,,კლარა კვეესის და თეთრი ტბის კვეთა,,,
1:minibusR1249,447,,true,"შანხაის დასახლება - მ/ს ""დელისი"" - აბულაძის ქ.",,"შანხაის დასახლება - მ/ს ""დელისი"" - აბულაძის ქ.",,,"შანხაის დასახლება - მ/ს ""დელისი"" - აბულაძის ქ.",,"შანხაის დასახლება - მ/ს ""დელისი"" - აბულაძის ქ.",,,აბულაძის და დელისის ქუჩების კვეთა,,აბულაძის და დელისის ქუჩების კვეთა,,,
1:minibusR2536,448,,true,გომარეთის ქ. - გადასასვლელი ხიდი,,გომარეთის ქ. - გადასასვლელი ხიდი,,,გომარეთის ქ. - გადასასვლელი ხიდი,,გომარეთის ქ. - გადასასვლელი ხიდი,,,გომარეთის ქუჩა მოპირდაპირე,,გომარეთის ქუჩა მოპირდაპირე,,,
1:minibusR12821,449,,true,ჭავჭავაძის გამზ. 83 - ვაკის პარკი,,ჭავჭავაძის გამზ. 83 - ვაკის პარკი,,,83 Chavchavadze Ave.- Vake Park,,ჭავჭავაძის გამზ. 83 - ვაკის პარკი,,,ილია ჭავჭავაძის გამზირი #83-ის მიმდებარედ,,ილია ჭავჭავაძის გამზირი #83-ის მიმდებარედ,,,
1:minibusR12815,450,,true,კაკლების დას. - ვაკის პარკი,"Vake Park – Kaklebi, Ivane Machabli St.",კაკლების დას. - ვაკის პარკი,კაკლების დას. - ვაკის პარკი,,კაკლების დას. - ვაკის პარკი,"Vake Park – Kaklebi, Ivane Machabli St.",კაკლების დას. - ვაკის პარკი,კაკლების დას. - ვაკის პარკი,,კაკლების დასახლება (ივანე მაჩაბლის ქუჩა #5),,კაკლების დასახლება (ივანე მაჩაბლის ქუჩა #5),,,
1:minibusR11374,451,,true,"მ/ს ""მარჯანიშვილი"" - პეტრე ბაგრატიონის ქ.",,"მ/ს ""მარჯანიშვილი"" - პეტრე ბაგრატიონის ქ.",,,"მ/ს ""მარჯანიშვილი"" - პეტრე ბაგრატიონის ქ.",,"მ/ს ""მარჯანიშვილი"" - პეტრე ბაგრატიონის ქ.",,,"M/S ""Marjanishvili""",,"მ/ს ""მარჯანიშვილი""",,,
1:minibusR25642,452,,true,"მ/ს ""სარაჯიშვილი"" - ელვერ კუპატაძის გასასვლელი",,"მ/ს ""სარაჯიშვილი"" - ელვერ კუპატაძის გასასვლელი",,,"მ/ს ""სარაჯიშვილი"" - ელვერ კუპატაძის გასასვლელი",,"მ/ს ""სარაჯიშვილი"" - ელვერ კუპატაძის გასასვლელი",,,M/S Sarajishvili,,"მ/ს ""სარაჯიშვილი""",,,
1:minibusR2848,453,,true,"ზღვისუბნის IV მ/რ - მ/ს ""ახმეტელის თეატრი""",,"ზღვისუბნის IV მ/რ - მ/ს ""ახმეტელის თეატრი""",,,"ზღვისუბნის IV მ/რ - მ/ს ""ახმეტელის თეატრი""",,"ზღვისუბნის IV მ/რ - მ/ს ""ახმეტელის თეატრი""",,,"ზღვის უბნის IV მ/რ, კორპუსი #4-ის მიმდებარედ",,"ზღვის უბნის IV მ/რ, კორპუსი #4-ის მიმდებარედ",,,
1:minibusR13363,454,,true,"ვარკეთილის 3, IIIა მ/რ - მ/ს ""ვარკეთილი""",,"ვარკეთილის 3, IIIა მ/რ - მ/ს ""ვარკეთილი""",,,"ვარკეთილის 3, IIIა მ/რ - მ/ს ""ვარკეთილი""",,"ვარკეთილის 3, IIIა მ/რ - მ/ს ""ვარკეთილი""",,,"ვარკეთილის III ა მ/რ, რაფიელ დვალის # 3",,"ვარკეთილის III ა მ/რ, რაფიელ დვალის # 3",,,
1:minibusR24239,455,,true,"ვაზისუბნის IIა მ/რ - მ/ს ""ვარკეთილი""",,"ვაზისუბნის IIა მ/რ - მ/ს ""ვარკეთილი""",,,"ვაზისუბნის IIა მ/რ - მ/ს ""ვარკეთილი""",,"ვაზისუბნის IIა მ/რ - მ/ს ""ვარკეთილი""",,,Vazisubani M/D-2a #23,,ვაზისუბნის IIა მ/რ #23,,,
1:minibusR25630,456,,true,"ლილო მოლი - მ/ს ""სამგორი""",,"ლილო მოლი - მ/ს ""სამგორი""",,,"ლილო მოლი - მ/ს ""სამგორი""",,"ლილო მოლი - მ/ს ""სამგორი""",,,"M/S ""Samgori""",,"მ/ს ""სამგორი""",,,
1:minibusR1734,457,,true,სადგურის მოედანი - ბესიკის ქ.,Station Square - ბესიკის ქ.,სადგურის მოედანი - ბესიკის ქ.,,,სადგურის მოედანი - ბესიკის ქ.,Station Square - ბესიკის ქ.,სადგურის მოედანი - ბესიკის ქ.,,,Station Square,,სადგურის მოედანი,,,
1:minibusR25672,458,,,მ/ს დიდუბე - სადგურის მოედანი,,მ/ს დიდუბე - სადგურის მოედანი,,,სადგურის მოედანი,Station Square,სადგურის მოედანი,,,M/S Didube,,მ/ს დიდუბე,,,
1:minibusR2734,459,,true,"ბობ უოლშის ქ. - მ/ს ""სარაჯიშვილი""",,"ბობ უოლშის ქ. - მ/ს ""სარაჯიშვილი""",,,"ბობ უოლშის ქ. - მ/ს ""სარაჯიშვილი""",,"ბობ უოლშის ქ. - მ/ს ""სარაჯიშვილი""",,,ბობ უოლშის ქ. (კორპუსებთან),,ბობ უოლშის ქ. (კორპუსებთან),,,
1:minibusR25584,460,,,დიდი დიღმის IV მ/რ - თბილისი მოლი,,დიდი დიღმის IV მ/რ - თბილისი მოლი,,,Tbilisi Mall,,თბილისი მოლი,,,Didi Dighomi IV M/D,,დიდი დიღმის IV მ/რ,,,
1:minibusR25850,461,,true,მ/ს ახმეტელი - ვარდისუბნის ქ.,,მ/ს ახმეტელი - ვარდისუბნის ქ.,,,მ/ს ახმეტელი  - ვარდისუბნის ქ.,,მ/ს ახმეტელი  - ვარდისუბნის ქ.,,,მუხიანი II დას. ვარდისუბნის ქ. N152,,მუხიანი II დას. ვარდისუბნის ქ. N152,,,
1:minibusR25511,462,,,რაფაელ დვალის ქ. - სადგურის მოედანი,,რაფაელ დვალის ქ. - სადგურის მოედანი,,,ვარკეთილი IIIა მ/რ,,ვარკეთილი IIIა მ/რ,,,სადგურის მოედანი,Station Square,სადგურის მოედანი,,,
1:minibusR1902,463,,true,მშვიდობის ქ. - ზაჰესის ხიდი,,მშვიდობის ქ. - ზაჰესის ხიდი,,,ზაჰესის ხიდი - მშვიდობის ქ.,,ზაჰესის ხიდი - მშვიდობის ქ.,,,ენერგეტიკის ქუჩა,,ენერგეტიკის ქუჩა,,,
1:minibusR1865,464,,true,ბილფილდის ქ. - სადგურის მოედანი,ბილფილდის ქ. - Station Square,ბილფილდის ქ. - სადგურის მოედანი,,,ბილფილდის ქ. - სადგურის მოედანი,ბილფილდის ქ. - Station Square,ბილფილდის ქ. - სადგურის მოედანი,,,ლ. ბილფელდის ქ.,,ლ. ბილფელდის ქ.,,,
1:minibusR24474,465,,,მ/ს სადგურის მოედანი - დოლიძის ქ.,Station Square - Dolidze St.,მ/ს სადგურის მოედანი - დოლიძის ქ.,მ/ს სადგურის მოედანი - დოლიძის ქ.,,დოლიძის ქ.,Station Square,დოლიძის ქ.,მ/ს სადგურის მოედანი,,მ/ს სადგურის მოედანი,Dolidze St.,მ/ს სადგურის მოედანი,დოლიძის ქ.,,
1:minibusR1265,466,,,შატბერაშვილის ქ. - სადგურის მოედანი,Shatberashvili St. - Station Square,შატბერაშვილის ქ. - სადგურის მოედანი,,,სადგურის მოედანი,Station Square,სადგურის მოედანი,,,Shatberashvili St.,,შატბერაშვილის ქ.,,,true
1:minibusR25702,467,,true,მ/ს ახმეტელი - დაისის ქ - შოვის ქ,,მ/ს ახმეტელი - დაისის ქ - შოვის ქ,,,მ/ს ახმეტელი - დაისის ქ - შოვის ქ,,მ/ს ახმეტელი - დაისის ქ - შოვის ქ,,,შოვის და მუხურას ქუჩების გადაკვეთა,,შოვის და მუხურას ქუჩების გადაკვეთა,,,
1:minibusR11410,468,,,სადგურის მოედანი - ჟვანიას ქ,Station Square - Nino Zhvania St.,სადგურის მოედანი - ჟვანიას ქ,,,სადგურის მოედანი,Station Square,სადგურის მოედანი,,,Nino Zhvania St.,,ნინო ჟვანიას ქ.,,,
1:minibusR25222,469,,,მ/ს დიდუბე - მუხადგვერდის სასაფლაო,,მ/ს დიდუბე - მუხადგვერდის სასაფლაო,,,,,,,,,,,,,
1:minibusR24954,470,,true,"ვარკეთილი 3, IV მ/რ - მ/ს ""ვარკეთილი""",,"ვარკეთილი 3, IV მ/რ - მ/ს ""ვარკეთილი""",,,"ვარკეთილი 3, IV მ/რ - მ/ს ""ვარკეთილი""",,"ვარკეთილი 3, IV მ/რ - მ/ს ""ვარკეთილი""",,,ვარკეთილი 3 დას. IV მ/რ. კორპ. 421,,ვარკეთილი 3 დას. IV მ/რ. კორპ. 421,,,
1:minibusR24981,471,,true,"ვარკეთილი 3, I მ/რ - მ/ს ""სამგორი""",,"ვარკეთილი 3, I მ/რ - მ/ს ""სამგორი""",,,"ვარკეთილი 3, I მ/რ - მ/ს ""სამგორი""",,"ვარკეთილი 3, I მ/რ - მ/ს ""სამგორი""",,,Street of Heroes Fighting for Territorial Integrity #20a,,საქართველოს ერთიანობისთვის მებრძოლთა ქუჩა #20ა,,,
1:minibusR25521,472,,,სახელმწიფო უნივერსიტეტის  მე-10 კორპუსი - ვლადიმერ ლობჟანიძის ქ.,TSU Building 10 – Vladimer Lobjanidze St.,სახელმწიფო უნივერსიტეტის  მე-10 კორპუსი - ვლადიმერ ლობჟანიძის ქ.,,,უნივერსიტეტის მაღლივი კორპუსი,TSU Building 10,უნივერსიტეტის მაღლივი კორპუსი,,,ლობჟანიძის ქ.,Vladimer Lobjanidze St.,ლობჟანიძის ქ.,,,
1:minibusR11392,473,,true,მეუნარგიას ქ. - გადასასვლელი ხიდი,,მეუნარგიას ქ. - გადასასვლელი ხიდი,,,მეუნარგიას ქ. - გადასასვლელი ხიდი,,მეუნარგიას ქ. - გადასასვლელი ხიდი,,,მეუნარგიას ქ 72,,მეუნარგიას ქ 72,,,
1:minibusR24418,474,,true,"კუპატაძის გას. - მ/ს ""სარაჯიშვილი""",,"კუპატაძის გას. - მ/ს ""სარაჯიშვილი""",,,"მ/ს ""სარაჯიშვილი"" - კუპატაძის გას.",,"მ/ს ""სარაჯიშვილი"" - კუპატაძის გას.",,,M/S Sarajishvili,,"მ/ს ""სარაჯიშვილი""",,,
1:minibusR24202,475,,true,"ზაჰესის დას. - მ/ს ""სარაჯიშვილი""",,"ზაჰესის დას. - მ/ს ""სარაჯიშვილი""",,,"ზაჰესის დას. - მ/ს ""სარაჯიშვილი""",,"ზაჰესის დას. - მ/ს ""სარაჯიშვილი""",,,Grigol Khandzteli St #78,,გრიგოლ ხანძთელის ქუჩა #78,,,
1:minibusR1688,476,,true,მინდელის ქ. - სადგურის მოედანი,,მინდელის ქ. - სადგურის მოედანი,,,სადგურის მოედანი - მინდელის ქ.,,სადგურის მოედანი - მინდელის ქ.,,,ელიზბარ მინდელის ქ. #10,,ელიზბარ მინდელის ქ. #10,,,
1:minibusR24403,477,,,სადგურის მოედანი - სამშვილდის ქ.,,სადგურის მოედანი - სამშვილდის ქ.,,,სამშვილდის ქ.,,სამშვილდის ქ.,,,სადგურის მოედანი,,სადგურის მოედანი,,,
1:minibusR11446,478,,,მეველეს ქ. - მ/ს ავლაბარი,,მეველეს ქ. - მ/ს ავლაბარი,,,მ/ს სამგორი,,მ/ს სამგორი,,,M/S Avlabari,,მ/ს ავლაბარი,,,
1:minibusR2948,479,,true,"მუჯირიშვილის ქ. - მ/ს ""ისანი""",,"მუჯირიშვილის ქ. - მ/ს ""ისანი""",,,"მუჯირიშვილის ქ. - მ/ს ""ისანი""",,"მუჯირიშვილის ქ. - მ/ს ""ისანი""",,,მუჯირიშვილის ქ. #55 მოპირდაპირედ,,მუჯირიშვილის ქ. #55 მოპირდაპირედ,,,
1:minibusR2425,480,,true,"ხოჭოს ტბის ქ. - მ/ს ""ახმეტელის თეატრი""",,"ხოჭოს ტბის ქ. - მ/ს ""ახმეტელის თეატრი""",,,"ხოჭოს ტბის ქ. - მ/ს ""ახმეტელის თეატრი""",,"ხოჭოს ტბის ქ. - მ/ს ""ახმეტელის თეატრი""",,,Naserali Kedi Street,,ნასერალის ქედის ქუჩა,,,
1:minibusR12809,481,,true,კიკეთი - წყნეთი,,კიკეთი - წყნეთი,,,კიკეთი - წყნეთი,,კიკეთი - წყნეთი,,,"Kiketi, 9 Dzma Kherkheulidze Street",,"კიკეთი, 9 ძმა ხერხეულიძის ქუჩა",,,true
1:minibusR1805,482,,,სოფ. ახალდაბა - წყნეთი,,სოფ. ახალდაბა - წყნეთი,,,Akhaldaba,,სოფ. ახალდაბა,,,Tskneti,,წყნეთი,,,
1:minibusR1847,483,,true,მაია წყნეთელის ძეგლი - მაია წყნეთელის ქ.,,მაია წყნეთელის ძეგლი - მაია წყნეთელის ქ.,,,Tskneti - Maia Tskneteli Monument - Maia Tskneteli St.,,მაია წყნეთელის ძეგლი - მაია წყნეთელის ქ.,,,Tskneti Center,,წყნეთის ცენტრი,,,
1:minibusR12839,484,,true,დ.ამილახვრის ქ. 46 - არსენას ქ.,,დ.ამილახვრის ქ. 46 - არსენას ქ.,,,დ.ამილახვრის ქ. 46 - არსენას ქ.,,დ.ამილახვრის ქ. 46 - არსენას ქ.,,,დ. ამილახვრის III ჩიხი,,დ. ამილახვრის III ჩიხი,,,
1:minibusR12851,485,,true,მაია წყნეთელის ძეგლი - საირმის ქ.,,მაია წყნეთელის ძეგლი - საირმის ქ.,,,მაია წყნეთელის ძეგლი - საირმის ქ.,,მაია წყნეთელის ძეგლი - საირმის ქ.,,,Tskneti Center,,წყნეთის ცენტრი,,,
1:minibusR2505,486,,true,მ/ს ახმეტელის თეატრი - გლდანის ხევის ქ.,,მ/ს ახმეტელის თეატრი - გლდანის ხევის ქ.,,,მ/ს ახმეტელის თეატრი - გლდანის ხევის ქ.,,მ/ს ახმეტელის თეატრი - გლდანის ხევის ქ.,,,Metro Station Akhmeteli Theatre,,"მ/ს ""ახმეტელის თეატრი""",,,
1:minibusR12803,487,,true,გრიშაშვილის ქ. - ჩოლოყაშვილის ქ.,,გრიშაშვილის ქ. - ჩოლოყაშვილის ქ.,,,Grishashvili St. - Cholokashvili St.,,გრიშაშვილის ქ. - ჩოლოყაშვილის ქ.,,,იოსებ გრიშაშვილის ქ. #49,,იოსებ გრიშაშვილის ქ. #49,,,
1:minibusR25721,488,,true,მ/ს ახმეტელის თეატრი - ნოზაძის ქ.,,მ/ს ახმეტელის თეატრი - ნოზაძის ქ.,,,მ/ს ახმეტელის თეატრი - ნოზაძის ქ.,,მ/ს ახმეტელის თეატრი - ნოზაძის ქ.,,,Metro Station Akhmeteli Theatre,,"მ/ს ""ახმეტელის თეატრი""",,,
1:minibusR24154,489,,,მ/ს სამგორი (ზედა გასასვლელი) - ისთ ფოინთი,,მ/ს სამგორი (ზედა გასასვლელი) - ისთ ფოინთი,,,East Point,,ისთ ფოინთი,,,მ/ს სამგორი (ზედა),,მ/ს სამგორი (ზედა),,,
1:minibusR11380,490,,,სადგურის მოედანი - მნათობის ქ.,,სადგურის მოედანი - მნათობის ქ.,,,სადგურის მოედანი,,სადგურის მოედანი,,,Mnatobi St.,,მნათობის ქ.,,,
1:minibusR12845,491,,true,"ნავთლუღი II-ის დას. - მ/ს ""სამგორი""",,"ნავთლუღი II-ის დას. - მ/ს ""სამგორი""",,,"ნავთლუღი II-ის დას. - მ/ს ""სამგორი""",,"ნავთლუღი II-ის დას. - მ/ს ""სამგორი""",,,"M/S ""Samgori""",,"მ/ს ""სამგორი""",,,
1:minibusR25755,492,,true,"ბერთუბნის ქ. - მ/ს ""ახმეტელის თეატრი""",,"ბერთუბნის ქ. - მ/ს ""ახმეტელის თეატრი""",,,"ბერთუბნის ქ. - მ/ს ""ახმეტელის თეატრი""",,"ბერთუბნის ქ. - მ/ს ""ახმეტელის თეატრი""",,,Metro Station Akhmeteli Theatre,,"მ/ს ""ახმეტელის თეატრი""",,,
1:minibusR11428,493,,true,"თბილისის ზღვის პლაზა - მ/ს ""ვარკეთილი""",,"თბილისის ზღვის პლაზა - მ/ს ""ვარკეთილი""",,,"თბილისის ზღვის პლაზა - მ/ს ""ვარკეთილი""",,"თბილისის ზღვის პლაზა - მ/ს ""ვარკეთილი""",,,Tbilisi Sea Plaza,,თბილისის ზღვის პლაზა,,,
1:minibusR13395,494,,true,"მუხიანის აგარაკები - მ/ს ""ახმეტელის თეატრი""",,"მუხიანის აგარაკები - მ/ს ""ახმეტელის თეატრი""",,,"მუხიანის აგარაკები - მ/ს ""ახმეტელის თეატრი""",,"მუხიანის აგარაკები - მ/ს ""ახმეტელის თეატრი""",,,ხანძთის I შესახვევი,,ხანძთის I შესახვევი,,,
1:minibusR25014,495,,true,"ვარკეთილის მეურნეობა - მ/ს ""ვარკეთილი""",,"ვარკეთილის მეურნეობა - მ/ს ""ვარკეთილი""",,,"ვარკეთილის მეურნეობა - მ/ს ""ვარკეთილი""",,"ვარკეთილის მეურნეობა - მ/ს ""ვარკეთილი""",,,"Varketili Farming, Samgori Street",,"ვარკეთილის მეურნეობა, სამგორის ქუჩა",,,
1:minibusR2666,496,,true,"გლდანის VIII მ/რ - მ/ს ""ახმეტელის თეატრი""",,"გლდანის VIII მ/რ - მ/ს ""ახმეტელის თეატრი""",,,"გლდანის VIII მ/რ - მ/ს ""ახმეტელის თეატრი""",M/S Akhmeteli Theatre,"გლდანის VIII მ/რ - მ/ს ""ახმეტელის თეატრი""","მ/ს ""ახმეტელის თეატრი""",,"გლდანის VIII მ/რ, კორპ. 11",Gldani VIII M/D,"გლდანის VIII მ/რ, კორპ. 11",გლდანის VIII მ/რ,,
1:minibusR24335,497,,,წულუკიძის ქ. - ბახტრიონის ქ.,,წულუკიძის ქ. - ბახტრიონის ქ.,,,წულუკიძის ქ.,,წულუკიძის ქ.,,,მ/ს ტექნიკური უნივერსიტეტი,,მ/ს ტექნიკური უნივერსიტეტი,,,
1:minibusR25826,498,,true,ოდიშელიძის  ქ. - ჭილაძის ქ.,,ოდიშელიძის  ქ. - ჭილაძის ქ.,,,ოდიშელიძის  ქ. - მ/ს სამედიცინო უნივერსიტეტი,,ოდიშელიძის  ქ. - მ/ს სამედიცინო უნივერსიტეტი,,,Otar Chiladze Street,,ოთარ ჭილაძის ქუჩა,,,
1:minibusR25708,499,,true,მ/ს ახმეტელი - იაკობის ქ - შოვის ქ,,მ/ს ახმეტელი - იაკობის ქ - შოვის ქ,,,მ/ს ახმეტელი - იაკობის ქ - შოვის ქ,,მ/ს ახმეტელი - იაკობის ქ - შოვის ქ,,,შოვის და მუხურას ქუჩების გადაკვეთა,,შოვის და მუხურას ქუჩების გადაკვეთა,,,
1:minibusR24280,500,,true,მ/ს ახმეტელი - გრემის ქ,,მ/ს ახმეტელი - გრემის ქ,,,მ/ს ახმეტელი - გრემის ქ,,მ/ს ახმეტელი - გრემის ქ,,,მუხიანი II დას. ტაძრის ქ. N18,,მუხიანი II დას. ტაძრის ქ. N18,,,
1:minibusR13421,501,,true,გადასასვლელი ხიდი - აფხაზეთის ქ.,,გადასასვლელი ხიდი - აფხაზეთის ქ.,,,გადასასვლელი ხიდი - აფხაზეთის ქ.,,გადასასვლელი ხიდი - აფხაზეთის ქ.,,,Railway Passage Bridge,,გადასასვლელი ხიდი,,,
1:minibusR13410,502,,true,მახათას მთა  - გადასასვლელი ხიდი,,მახათას მთა  - გადასასვლელი ხიდი,,,მახათას მთა  - გადასასვლელი ხიდი,,მახათას მთა  - გადასასვლელი ხიდი,,,მახათას მთა # 3 კორპუსი,,მახათას მთა # 3 კორპუსი,,,
1:minibusR13383,503,,true,მაია წყნეთელის ძეგლი - ბეთანია,,მაია წყნეთელის ძეგლი - ბეთანია,,,წყნეთი - ბეთანია,,წყნეთი - ბეთანია,,,Tskneti Center,,წყნეთის ცენტრი,,,
1:minibusR2588,504,,,თიანეთის ქ. - წინამძღვრიშვილის ქ.,,თიანეთის ქ. - წინამძღვრიშვილის ქ.,,,Tianeti St.,,თიანეთის ქ.,,,Tsinamdzgvrishvili St.,,წინამძღვრიშვილის ქ.,,,
1:minibusR13371,505,,true,"ონკოლოგიის კვლევითი ცენტრი - მ/ს ""დელისი""",Oncology Research Center – Delisi Metro,"ონკოლოგიის კვლევითი ცენტრი - მ/ს ""დელისი""",,,"ონკოლოგიის კვლევითი ცენტრი - მ/ს ""დელისი""",,"ონკოლოგიის კვლევითი ცენტრი - მ/ს ""დელისი""",,,Levan Charkviani St #10,Oncology Research Center – Delisi Metro,ლევან ჩარკვიანის ქუჩა #10,,,
1:minibusR13355,506,,true,"ლილო, თენგიზ სტურუას ქ. - ლილო მოლი",,"ლილო, თენგიზ სტურუას ქ. - ლილო მოლი",,,"ლილო, თენგიზ სტურუას ქ. - ლილო მოლი",,"ლილო, თენგიზ სტურუას ქ. - ლილო მოლი",,,Lilo Settl 2nd Block,,ლილოს დასახლება II კვარტალი,,,
1:minibusR13335,507,,,ზღვის უბნის IV მ/რ - მ/ს სადგურის მოედანი,,ზღვის უბნის IV მ/რ - მ/ს სადგურის მოედანი,,,სადგურის მოედანი,,სადგურის მოედანი,,,Zghvisubani IV M/D,,ზღვის უბნის IV მ/რ,,,
1:minibusR2518,508,,true,"ავშნის III შეს. - მ/ს ""ახმეტელის თეატრი""",,"ავშნის III შეს. - მ/ს ""ახმეტელის თეატრი""",,,"ავშნის III შეს. - მ/ს ""ახმეტელის თეატრი""",,"ავშნის III შეს. - მ/ს ""ახმეტელის თეატრი""",,,ვახტანგ ფირცხალავას ქ. N39,,ვახტანგ ფირცხალავას ქ. N39,,,
1:minibusR2487,509,,true,"სამხედრო დასახლება - მ/ს ""ახმეტელის თეატრი""",,"სამხედრო დასახლება - მ/ს ""ახმეტელის თეატრი""",,,"სამხედრო დასახლება - მ/ს ""ახმეტელის თეატრი""",,"სამხედრო დასახლება - მ/ს ""ახმეტელის თეატრი""",,,ლერი ლაგურაშვილის ქ. #5,,ლერი ლაგურაშვილის ქ. #5,,,
1:minibusR2544,510,,true,"გლდანის V მ/რ - მ/ს ""სარაჯიშვილი""",,"გლდანის V მ/რ - მ/ს ""სარაჯიშვილი""",,,"გლდანის V მ/რ - მ/ს ""სარაჯიშვილი""",,"გლდანის V მ/რ - მ/ს ""სარაჯიშვილი""",,,გლდანის მე-3ა მ/რ კორპ. N23,,გლდანის მე-3ა მ/რ კორპ. N23,,,
1:minibusR2607,511,,true,"გლდანის IIIა მ/რ - მ/ს ""ახმეტელის თეატრი""",,"გლდანის IIIა მ/რ - მ/ს ""ახმეტელის თეატრი""",,,"გლდანის IIIა მ/რ - მ/ს ""ახმეტელის თეატრი""",,"გლდანის IIIა მ/რ - მ/ს ""ახმეტელის თეატრი""",,,"გლდანის III ""ა"" მ/რ, კორპ. #20",,"გლდანის III ""ა"" მ/რ, კორპ. #20",,,
1:minibusR24653,512,,,გლდანის VI მ/რ - ილია ჭავჭავაძის გამზირი,,გლდანის VI მ/რ - ილია ჭავჭავაძის გამზირი,,,გლდანის VI მ/რ,,გლდანის VI მ/რ,,,ჭავჭავაძის გამზირი,,ჭავჭავაძის გამზირი,,,
1:minibusR13327,513,,,სვანეთის და სვანეთის I შესახვევის გადაკვეთა - ლიბანის ქ.,,სვანეთის და სვანეთის I შესახვევის გადაკვეთა - ლიბანის ქ.,,,ლიბანის ქ.,,ლიბანის ქ.,,,სვანეთის ქ.,,სვანეთის ქ.,,,
1:minibusR13300,514,,,ჭავჭავაძის ქ. - ლიბანის ქ.,,ჭავჭავაძის ქ. - ლიბანის ქ.,,,ჭავჭავაძის ქ.,,ჭავჭავაძის ქ.,,,ლიბანის ქ.,,ლიბანის ქ.,,,
1:minibusR25812,515,,true,სულხან საბა ორბელიანის ქ. -  წყაროს ქ.,,სულხან საბა ორბელიანის ქ. -  წყაროს ქ.,,,წყაროს ქ. - ორბელიანის ქ.,,წყაროს ქ. - ორბელიანის ქ.,,,"სოფელი გლდანი, წყაროს ქუჩა, #36",,"სოფელი გლდანი, წყაროს ქუჩა, #36",,,
1:minibusR11440,516,,true,"ჭიჭინაძის შეს. - მ/ს ""ვარკეთილი""",,"ჭიჭინაძის შეს. - მ/ს ""ვარკეთილი""",,,"ჭიჭინაძის შეს. - მ/ს ""ვარკეთილი""",,"ჭიჭინაძის შეს. - მ/ს ""ვარკეთილი""",,,ბესარიონ ჭიჭინაძის ქ. #12,,ბესარიონ ჭიჭინაძის ქ. #12,,,
1:minibusR25168,517,,,"ომარ ხიზანიშვილისა და კონსტანტინე ლესელიძის ქუჩების გადაკვეთა - მ/ს ""სადგურის მოედანი 1"" (წრე)",,"ომარ ხიზანიშვილისა და კონსტანტინე ლესელიძის ქუჩების გადაკვეთა - მ/ს ""სადგურის მოედანი 1"" (წრე)",,,მ/ს სადგურის მოედანი,,მ/ს სადგურის მოედანი,,,Gldani VII-VIII M/D,,გლდანის VII-VIII მ/რ,,,
1:minibusR25554,518,,true,"დიდი დიღომი IV მ/რ - მ/ს ""ახმეტელის თეატრი""",,"დიდი დიღომი IV მ/რ - მ/ს ""ახმეტელის თეატრი""",,,"დიდი დიღომი IV მ/რ - მ/ს ""ახმეტელის თეატრი""",,"დიდი დიღომი IV მ/რ - მ/ს ""ახმეტელის თეატრი""",,,Didi Dighomi IV M/D (Bus Depot #2),,დიდი დიღომი IV მ/რ (ავტობაზა #2),,,
1:minibusR24253,519,,,"ისთ ფოინთი - ქეთევან დედოფლის გამზ. #91 ""ა""",,"ისთ ფოინთი - ქეთევან დედოფლის გამზ. #91 ""ა""",,,East Point,,ისთ ფოინთი,,,მ/ს სამგორი,,მ/ს სამგორი,,,
1:minibusR24990,520,,true,"წმ. ბარბარეს უბანი - მ/ს ""ვარკეთილი""",,"წმ. ბარბარეს უბანი - მ/ს ""ვარკეთილი""",,,"წმ. ბარბარეს უბანი - მ/ს ""ვარკეთილი""",,"წმ. ბარბარეს უბანი - მ/ს ""ვარკეთილი""",,,Kveda Melotineta Settlement,,ქვედა მელითონეთა დასახლება,,,
1:minibusR25053,521,,true,"მეტრომშენი - მ/ს ""ვარკეთილი""",,"მეტრომშენი - მ/ს ""ვარკეთილი""",,,"მეტრომშენი - მ/ს ""ვარკეთილი""",,"მეტრომშენი - მ/ს ""ვარკეთილი""",,,Giorgi Ghviniashvili St #27,,გიორგი ღვინიაშვილის ქუჩა #27,,,
1:minibusR25397,522,,,თამარ მუჯირიშვილის ქ. - სადგურის მოედანი,,თამარ მუჯირიშვილის ქ. - სადგურის მოედანი,,,მუჯირიშვილის ქ.,,მუჯირიშვილის ქ.,,,სადგურის მოედანი,,სადგურის მოედანი,,,
1:minibusR24902,523,,,ვარკეთილის-3 III მ/რ (კორპ. #335) - მ/ს სამგორი (ქვედა),,ვარკეთილის-3 III მ/რ (კორპ. #335) - მ/ს სამგორი (ქვედა),,,ვარკეთილის-3 III მ/რ,,ვარკეთილის-3 III მ/რ,,,მ/ს სამგორი,,მ/ს სამგორი,,,
1:minibusR2803,524,,true,მ/ს ვარკეთილი - ისთ ფოინთი,,მ/ს ვარკეთილი - ისთ ფოინთი,,,ისთ ფოინთი - მ/ს ვარკეთილი,,ისთ ფოინთი - მ/ს ვარკეთილი,,,ისთ ფოინთი (მიკროავტობუსები),,ისთ ფოინთი (მიკროავტობუსები),,,
1:minibusR12977,525,,true,მ/ს ავლაბარი - მახათას მთა,,მ/ს ავლაბარი - მახათას მთა,,,"M/S ""Avlabari"" - Makhata Rise",,მ/ს ავლაბარი - მახათას მთა,,,მ/ს ავლაბარი (6),,მ/ს ავლაბარი (6),,,
1:minibusR25236,526,,,"ზურგოვანა - მ/ს ""დიდუბე""",,"ზურგოვანა - მ/ს ""დიდუბე""",,,ზურგოვანა,,ზურგოვანა,,,"მ/ს ""დიდუბე""",,"მ/ს ""დიდუბე""",,,
1:minibusR25211,527,,,"ზაჰესის დასახლება - მ/ს ""დიდუბე""",,"ზაჰესის დასახლება - მ/ს ""დიდუბე""",,,"მ/ს ""დიდუბე""",,"მ/ს ""დიდუბე""",,,ზაჰესის დასახლება,,ზაჰესის დასახლება,,,
1:minibusR25460,528,,,ნაკადულის ქ. -  სადგურის მოედანი,Nakaduli St. -  Station Square,ნაკადულის ქ. -  სადგურის მოედანი,ნაკადულის ქ. -  სადგურის მოედანი,,Nakaduli St,Nakaduli St.,ნაკადულის ქ.,,,სადგურის მოედანი,Station Square,სადგურის მოედანი,,,
1:minibusR11386,529,,,ბეჟანიშვილი ქ. - სადგურის მოედანი,,ბეჟანიშვილი ქ. - სადგურის მოედანი,,,Bezhanishvili St.,,ბეჟანიშვილის ქ.,,,სადგურის მოედანი,,სადგურის მოედანი,,,
1:minibusR25026,530,,true,"ვარკეთილი 3, IV მ/რ - მ/ს ""ვარკეთილი""",,"ვარკეთილი 3, IV მ/რ - მ/ს ""ვარკეთილი""",,,"ვარკეთილი 3, IV მ/რ - მ/ს ""ვარკეთილი""",,"ვარკეთილი 3, IV მ/რ - მ/ს ""ვარკეთილი""",,,Viktor Kupradze St #424,,ვიქტორ კუპრაძის ქუჩა #424,,,
1:minibusR24614,531,,,ხიზანიშვილის და ლესელიძისა  ქ. გადაკვეთა  - ფალიაშვილის ქ.,,ხიზანიშვილის და ლესელიძისა  ქ. გადაკვეთა  - ფალიაშვილის ქ.,,,გლდანის VI-VIII მ/რ,Gldani VI-VIII M/D,გლდანის VI-VIII მ/რ,,,ფალიაშვილის ქ.,,ფალიაშვილის ქ.,,,
1:minibusR24571,532,,true,დუმბაძის გამზ. - თავისუფლების მოედ.,,დუმბაძის გამზ. - თავისუფლების მოედ.,,,დუმბაძის გამზ. - თავისუფლების მოედ.,,დუმბაძის გამზ. - თავისუფლების მოედ.,,,Nodar Dumbadze Ave #18,,ნოდარ დუმბაძის გამზირი კორპუსი #18,,,
1:minibusR25747,533,,true,გადასასვლელი ხიდი - იმერეთის ქ.,,გადასასვლელი ხიდი - იმერეთის ქ.,,,გადასასვლელი ხიდი - იმერეთის ქ.,,გადასასვლელი ხიდი - იმერეთის ქ.,,,Railway Passage Bridge,,გადასასვლელი ხიდი,,,
1:minibusR25434,534,,,ლუბლიანას ქ. - ვარკეთილის IV მ/რ,,ლუბლიანას ქ. - ვარკეთილის IV მ/რ,,,ლუბლიანას ქ.,,ლუბლიანას ქ.,,,Varketili IV M/D,,ვარკეთილის IV მ/რ,,,
1:minibusR24928,535,,true,"ბესარიონ ჭიჭინაძის ქ. - მ/ს ""სამგორი""",,"ბესარიონ ჭიჭინაძის ქ. - მ/ს ""სამგორი""",,,"ბესარიონ ჭიჭინაძის ქ. - მ/ს ""სამგორი""",,"ბესარიონ ჭიჭინაძის ქ. - მ/ს ""სამგორი""",,,Public School for Impaired Vision people #201,,#201-ე სუსტმხედველთა საჯარო სკოლა,,,
1:minibusR25085,536,,,ლადო გუდიაშვილის ქ. - ლუბლიანას ქ.,,ლადო გუდიაშვილის ქ. - ლუბლიანას ქ.,,,Baratashvili St,,ბარათაშვილის ქ.,,,ლუბლიანას ქ.,,ლუბლიანას ქ.,,,
1:minibusR25603,537,,true,"ნუცუბიძის IV მ/რ - მ/ს ""დელისი""",,"ნუცუბიძის IV მ/რ - მ/ს ""დელისი""",,,"ნუცუბიძის IV მ/რ - მ/ს ""დელისი""",,"ნუცუბიძის IV მ/რ - მ/ს ""დელისი""",,,"ნუცუბიძის IV პლატო, კორპ 23/24",,"ნუცუბიძის IV პლატო, კორპ 23/24",,,
1:minibusR25331,538,,,მ/ს დიდუბე - ორთაჭალის ც/ავტოსადგური,,მ/ს დიდუბე - ორთაჭალის ც/ავტოსადგური,,,M/S Didube,,მ/ს დიდუბე,,,ორთაჭალის ავტოსადგური,,ორთაჭალის ავტოსადგური,,,
1:minibusR25151,539,,,სადგურის მოედანი - დიდი დიღმის IV მ/რ,Station Square – Didi Dighomi IV Microdistrict,სადგურის მოედანი - დიდი დიღმის IV მ/რ,,,Didi Dighomi IV M/D,Station Square,დიდი დიღმის IV მ/რ,,,სადგურის მოედანი,Didi Dighomi IV Microdistrict,სადგურის მოედანი,,,
1:minibusR25426,540,,,"ილია ჭავჭავაძის გამზირი - სავაჭრო ცენტრი ""ისთ ფოინთი""",Ilia Chavchavadze Ave. – East Point,"ილია ჭავჭავაძის გამზირი - სავაჭრო ცენტრი ""ისთ ფოინთი""",,,ჭავჭავაძის გამზირი,Ilia Chavchavadze Ave.,ჭავჭავაძის გამზირი,,,East Point,,ისთ ფოინთი,,,
1:minibusR24587,541,,,დიდი დიღმის IV მ/რ - ამაღლების ქ.,Didi Dighomi IV M/D – Amaghleba St.,,,,ამაღლების ქ.,Amaghleba St.,ამაღლების ქ.,,,Didi Dighomi IV M/D,,დიდი დიღმის IV მ/რ,,,true
1:minibusR24537,542,,true,დარკვეთის ქ. - გადასასვლელი ხიდი,,დარკვეთის ქ. - გადასასვლელი ხიდი,,,დარკვეთის ქ. - გადასასვლელი ხიდი,,დარკვეთის ქ. - გადასასვლელი ხიდი,,,დარკვეთის ქუჩა #30,,დარკვეთის ქუჩა #30,,,
1:minibusR25547,543,,,მ/ს ახმეტელის თეატრი - მ/ს სარაჯიშვილი,,მ/ს ახმეტელის თეატრი - მ/ს სარაჯიშვილი,,,M/S Akhmeteli Theatre,,მ/ს ახმეტელის თეატრი,,,Sarajishvili M/S,,მ/ს სარაჯიშვილი,,,
1:minibusR24871,544,,,კრწანისის ქუჩა - მ/ს 300 არაგველი,,კრწანისის ქუჩა - მ/ს 300 არაგველი,,,Krtsanisi Street,,კრწანისის ქუჩა,,,მ/ს 300 არაგველი,,მ/ს 300 არაგველი,,,
1:minibusR24891,545,,true,"ბ.ხმელნიცკის ქ. - მ/ს ""ისანი""",,"ბ.ხმელნიცკის ქ. - მ/ს ""ისანი""",,,"მ/ს ""ისანი"" - ბ.ხმელნიცკის ქ.",,"მ/ს ""ისანი"" - ბ.ხმელნიცკის ქ.",,,Public School #106,,#106-ე საჯარო სკოლა,,,
1:minibusR24966,546,,true,"იყალთოს გორა - მ/ს ""ტექნიკური უნივერსიტეტი""",,"იყალთოს გორა - მ/ს ""ტექნიკური უნივერსიტეტი""",,,"იყალთოს გორა - მ/ს ""ტექნიკური უნივერსიტეტი""",,"იყალთოს გორა - მ/ს ""ტექნიკური უნივერსიტეტი""",,,Ikalto Hill,,იყალთოს გორა,,,
1:minibusR25311,547,,true,ისთ პოინთი - ბარათაშვილის ქ.,,ისთ პოინთი - ბარათაშვილის ქ.,,,ისთ პოინთი - ბარათაშვილის ქ.,,ისთ პოინთი - ბარათაშვილის ქ.,,,ისთ ფოინთი (მიკროავტობუსები),,ისთ ფოინთი (მიკროავტობუსები),,,
1:minibusR24164,548,,true,"ზაჰესის დასახლება - მ/ს ""ახმეტელის თეატრი""",,"ზაჰესის დასახლება - მ/ს ""ახმეტელის თეატრი""",,,"ზაჰესის დასახლება - მ/ს ""ახმეტელის თეატრი""",,"ზაჰესის დასახლება - მ/ს ""ახმეტელის თეატრი""",,,Freedom St #70,,თავისუფლების ქუჩა #70,,,
1:minibusR32959,549,,true,წინანაურის ქ. - დიდი ხეივნის ქ.,,წინანაურის ქ. - დიდი ხეივნის ქ.,,,წინანაურის ქ. - დიდი ხეივნის ქ.,,წინანაურის ქ. - დიდი ხეივნის ქ.,,,წინანაურის ქ. #93,,წინანაურის ქ. #93,,,
1:minibusR25268,550,,,"ვარკეთილი 3, I მ/რ - ლუბლიანას ქ.",,"ვარკეთილი 3, I მ/რ - ლუბლიანას ქ.",,,"ვარკეთილი 3, I მ/რ",,"ვარკეთილი 3, I მ/რ",,,ლუბლიანას ქ.,,ლუბლიანას ქ.,,,
1:minibusR24579,551,,,თბილისი მოლი - ანა პოლიტკოვსკაიას ქ.,,თბილისი მოლი - ანა პოლიტკოვსკაიას ქ.,,,Tbilisi Mall,,თბილისი მოლი,,,Politkovskaya St,,პოლიტკოვსკაიას ქ.,,,
1:minibusR32979,552,,true,მ/ს 300 არაგველი - ბაჟან კალანდაძის ქ.,,მ/ს 300 არაგველი - ბაჟან კალანდაძის ქ.,,,მ/ს 300 არაგველი - ბაჟან კალანდაძის ქ.,,მ/ს 300 არაგველი - ბაჟან კალანდაძის ქ.,,,"M/S ""300 Aragveli""",,"მ/ს ""300 არაგველი""",,,
1:minibusR32989,553,,true,მ/ს ღრმაღელე - გვაზავას II შეს.,,მ/ს ღრმაღელე - გვაზავას II შეს.,,,გვაზავას II შეს - მ/ს ღრმაღელე,,გვაზავას II შეს - მ/ს ღრმაღელე,,,"გვაზაურის II შესახვევი, N 67",,"გვაზაურის II შესახვევი, N 67",,,
1:minibusR33033,554,,true,მ/ს ვარკეთილი - თვალჭრელიზის ქ.,,მ/ს ვარკეთილი - თვალჭრელიზის ქ.,,,მ/ს ვარკეთილი - თვალჭრელიზის ქ.,,მ/ს ვარკეთილი - თვალჭრელიზის ქ.,,,Imeda Kahniashvili Street,,იმედა კახნიაშვილის ქუჩა,,,
1:minibusR33041,555,,true,შორაპნის II ქ. - მ/ს 300 არაგველი,,შორაპნის II ქ. - მ/ს 300 არაგველი,,,შორაპნის II ქ. - მ/ს 300 არაგველი,,შორაპნის II ქ. - მ/ს 300 არაგველი,,,შორაპნის II ქ. #11ა,,შორაპნის II ქ. #11ა,,,
1:minibusR33048,556,,true,გადასასვლელი ხიდი - ჩეჩელაშვილის ქ.,,გადასასვლელი ხიდი - ჩეჩელაშვილის ქ.,,,გადასასვლელი ხიდი - ჩეჩელაშვილის ქ.,,გადასასვლელი ხიდი - ჩეჩელაშვილის ქ.,,,Railway Passage Bridge,,გადასასვლელი ხიდი,,,
1:minibusR25405,557,,,კრწანისის ქ. - სამგორის ქ.,,კრწანისის ქ. - სამგორის ქ.,,,კრწანისის ქ.,,კრწანისის ქ.,,,სამგორის ქ.,,სამგორის ქ.,,,
1:minibusR33069,558,,true,"ნუცუბიძის I მ/რ  - მ/ს ""დელისი""",,"ნუცუბიძის I მ/რ  - მ/ს ""დელისი""",,,"ნუცუბიძის I მ/რ  - მ/ს ""დელისი""",,"ნუცუბიძის I მ/რ  - მ/ს ""დელისი""",,,"Nutsubidze I M/D, #33",,"ნუცუბიძის I მ/რ, #33",,,
1:minibusR217118,559,,true,ამილახვარის ქ. - მ/ს ვარკეთილი,,ამილახვარის ქ. - მ/ს ვარკეთილი,,,ამილახვარის ქ. - მ/ს ვარკეთილი,,ამილახვარის ქ. - მ/ს ვარკეთილი,,,გივი ამილახვარის ქ. N17,,გივი ამილახვარის ქ. N17,,,
1:minibusR24447,567,,,სამგორის ქ. - ყვარლისა და უშაკოვის ქ. გადაკვეთა,,სამგორის ქ. - ყვარლისა და უშაკოვის ქ. გადაკვეთა,,,სამგორის ქ.,,სამგორის ქ.,,,მეტრომშენი,,მეტრომშენი,,,
1:minibusR2681,576,,true,"ნიაბის ქ. - მ/ს ""ავლაბარი""",,"ნიაბის ქ. - მ/ს ""ავლაბარი""",,,"ნიაბის ქ. - მ/ს ""ავლაბარი""",,"ნიაბის ქ. - მ/ს ""ავლაბარი""",,,ნიაბის ქ. (#55-ის მიმდებარედ),,ნიაბის ქ. (#55-ის მიმდებარედ),,,
1:minibusR24487,580,,true,"კრწანისის ქ. - მ/ს ""რუსთაველი""",,"კრწანისის ქ. - მ/ს ""რუსთაველი""",,,"კრწანისის ქ. - მ/ს ""რუსთაველი""",,"კრწანისის ქ. - მ/ს ""რუსთაველი""",,,Grigol Volski Street,,გრიგოლ ვოლსკის ქუჩა,,,
1:minibusR2785,582,,true,"ლილოს დასახლება - მ/ს ""ვარკეთილი""",,"ლილოს დასახლება - მ/ს ""ვარკეთილი""",,,"ლილოს დასახლება - მ/ს ""ვარკეთილი""",,"ლილოს დასახლება - მ/ს ""ვარკეთილი""",,,თენგიზ სტურუას ქ. #2,,თენგიზ სტურუას ქ. #2,,,
